{
  "type": "FeatureCollection",
  "features": [
    {
      "type": "Feature",
      "properties": {
        "aeroway": "aerodrome",
        "iata": "AGF",
        "icao": "LFBA",
        "name": "AGEN-LA-GARENNE",
        "@geometry": "center"
      },
      "geometry": {
        "type": "Point",
        "coordinates": [
          0.5955228666937628,
          44.176479357460984
        ]
      },
      "id": "csv/row_0"
    },
    {
      "type": "Feature",
      "properties": {
        "aeroway": "aerodrome",
        "iata": "AJA",
        "icao": "LFKJ",
        "name": "AJACCIO-NAPOLEON-BONAPARTE",
        "@geometry": "center"
      },
      "geometry": {
        "type": "Point",
        "coordinates": [
          8.794767873232681,
          41.92016888069548
        ]
      },
      "id": "csv/row_1"
    },
    {
      "type": "Feature",
      "properties": {
        "aeroway": "aerodrome",
        "iata": "LBI",
        "icao": "LFCI",
        "name": "ALBI-LE-SEQUESTRE",
        "@geometry": "center"
      },
      "geometry": {
        "type": "Point",
        "coordinates": [
          2.1168795044941917,
          43.91550761964181
        ]
      },
      "id": "csv/row_2"
    },
    {
      "type": "Feature",
      "properties": {
        "aeroway": "aerodrome",
        "iata": "ANE",
        "icao": "LFJR",
        "name": "ANGERS-MARCE",
        "@geometry": "center"
      },
      "geometry": {
        "type": "Point",
        "coordinates": [
          -0.3136508253262492,
          47.56285702259493
        ]
      },
      "id": "csv/row_3"
    },
    {
      "type": "Feature",
      "properties": {
        "aeroway": "aerodrome",
        "iata": "ANG",
        "icao": "LFBU",
        "name": "ANGOULEME-BRIE-CHAMPNIERS",
        "@geometry": "center"
      },
      "geometry": {
        "type": "Point",
        "coordinates": [
          0.21846102543132315,
          45.72710670183617
        ]
      },
      "id": "csv/row_4"
    },
    {
      "type": "Feature",
      "properties": {
        "aeroway": "aerodrome",
        "iata": "NCY",
        "icao": "LFLP",
        "name": "ANNECY-MEYTHET",
        "@geometry": "center"
      },
      "geometry": {
        "type": "Point",
        "coordinates": [
          6.105631093573212,
          45.930857316730275
        ]
      },
      "id": "csv/row_5"
    },
    {
      "type": "Feature",
      "properties": {
        "aeroway": "aerodrome",
        "iata": "AUR",
        "icao": "LFLW",
        "name": "AURILLAC",
        "@geometry": "center"
      },
      "geometry": {
        "type": "Point",
        "coordinates": [
          2.4206281910230865,
          44.89789957854633
        ]
      },
      "id": "csv/row_6"
    },
    {
      "type": "Feature",
      "properties": {
        "aeroway": "aerodrome",
        "iata": "AUF",
        "icao": "LFLA",
        "name": "AUXERRE-BRANCHES",
        "@geometry": "center"
      },
      "geometry": {
        "type": "Point",
        "coordinates": [
          3.4997554448458628,
          47.844699976297086
        ]
      },
      "id": "csv/row_7"
    },
    {
      "type": "Feature",
      "properties": {
        "aeroway": "aerodrome",
        "iata": "AVN",
        "icao": "LFMV",
        "name": "AVIGNON-CAUMONT",
        "@geometry": "center"
      },
      "geometry": {
        "type": "Point",
        "coordinates": [
          4.898295719304937,
          43.90547354872917
        ]
      },
      "id": "csv/row_8"
    },
    {
      "type": "Feature",
      "properties": {
        "aeroway": "aerodrome",
        "iata": "BIA",
        "icao": "LFKB",
        "name": "BASTIA-PORETTA",
        "@geometry": "center"
      },
      "geometry": {
        "type": "Point",
        "coordinates": [
          9.479168069822354,
          42.55346826765762
        ]
      },
      "id": "csv/row_9"
    },
    {
      "type": "Feature",
      "properties": {
        "aeroway": "aerodrome",
        "iata": "BVA",
        "icao": "LFOB",
        "name": "BEAUVAIS-TILLE",
        "@geometry": "center"
      },
      "geometry": {
        "type": "Point",
        "coordinates": [
          2.1104382149415257,
          49.454495576453844
        ]
      },
      "id": "csv/row_10"
    },
    {
      "type": "Feature",
      "properties": {
        "aeroway": "aerodrome",
        "iata": "EGC",
        "icao": "LFBE",
        "name": "BERGERAC-ROUMANIERE",
        "@geometry": "center"
      },
      "geometry": {
        "type": "Point",
        "coordinates": [
          0.5175409817646559,
          44.82400069487013
        ]
      },
      "id": "csv/row_11"
    },
    {
      "type": "Feature",
      "properties": {
        "aeroway": "aerodrome",
        "iata": "BZR",
        "icao": "LFMU",
        "name": "BEZIERS-VIAS",
        "@geometry": "center"
      },
      "geometry": {
        "type": "Point",
        "coordinates": [
          3.3536534039489228,
          43.321073391178984
        ]
      },
      "id": "csv/row_12"
    },
    {
      "type": "Feature",
      "properties": {
        "aeroway": "aerodrome",
        "iata": "BIQ",
        "icao": "LFBZ",
        "name": "BIARRITZ-BAYONNE-ANGLET",
        "@geometry": "center"
      },
      "geometry": {
        "type": "Point",
        "coordinates": [
          -1.5306869217137549,
          43.47178188374369
        ]
      },
      "id": "csv/row_13"
    },
    {
      "type": "Feature",
      "properties": {
        "aeroway": "aerodrome",
        "iata": "BOD",
        "icao": "LFBD",
        "name": "BORDEAUX-MERIGNAC",
        "@geometry": "center"
      },
      "geometry": {
        "type": "Point",
        "coordinates": [
          -0.7127765420497602,
          44.82932375436681
        ]
      },
      "id": "csv/row_14"
    },
    {
      "type": "Feature",
      "properties": {
        "aeroway": "aerodrome",
        "iata": "BOU",
        "icao": "LFLD",
        "name": "BOURGES",
        "@geometry": "center"
      },
      "geometry": {
        "type": "Point",
        "coordinates": [
          2.3684851389535853,
          47.062441798049825
        ]
      },
      "id": "csv/row_15"
    },
    {
      "type": "Feature",
      "properties": {
        "aeroway": "aerodrome",
        "iata": "BES",
        "icao": "LFRB",
        "name": "BREST-BRETAGNE",
        "@geometry": "center"
      },
      "geometry": {
        "type": "Point",
        "coordinates": [
          -4.418378768952611,
          48.447389499521066
        ]
      },
      "id": "csv/row_16"
    },
    {
      "type": "Feature",
      "properties": {
        "aeroway": "aerodrome",
        "iata": "BVE",
        "icao": "LFSL",
        "name": "BRIVE-VALLEE-DE-DORDOGNE-",
        "@geometry": "center"
      },
      "geometry": {
        "type": "Point",
        "coordinates": [
          1.4896989836207502,
          45.0413712789981
        ]
      },
      "id": "csv/row_17"
    },
    {
      "type": "Feature",
      "properties": {
        "aeroway": "aerodrome",
        "iata": "CFR",
        "icao": "LFRK",
        "name": "CAEN-CARPIQUET",
        "@geometry": "center"
      },
      "geometry": {
        "type": "Point",
        "coordinates": [
          -0.45954821866896145,
          49.18300864544126
        ]
      },
      "id": "csv/row_18"
    },
    {
      "type": "Feature",
      "properties": {
        "aeroway": "aerodrome",
        "iata": "ZAO",
        "icao": "LFCC",
        "name": "CAHORS-LALBENQUE",
        "@geometry": "center"
      },
      "geometry": {
        "type": "Point",
        "coordinates": [
          1.476296734658056,
          44.34913423805762
        ]
      },
      "id": "csv/row_19"
    },
    {
      "type": "Feature",
      "properties": {
        "aeroway": "aerodrome",
        "iata": "CQF",
        "icao": "LFAC",
        "name": "CALAIS-DUNKERQUE",
        "@geometry": "center"
      },
      "geometry": {
        "type": "Point",
        "coordinates": [
          1.9550058334915612,
          50.958343239679294
        ]
      },
      "id": "csv/row_20"
    },
    {
      "type": "Feature",
      "properties": {
        "aeroway": "aerodrome",
        "iata": "CLY",
        "icao": "LFKC",
        "name": "CALVI-ST-CATHERINE",
        "@geometry": "center"
      },
      "geometry": {
        "type": "Point",
        "coordinates": [
          8.790307088588744,
          42.52525974443311
        ]
      },
      "id": "csv/row_21"
    },
    {
      "type": "Feature",
      "properties": {
        "aeroway": "aerodrome",
        "iata": "JCA",
        "icao": "LFMD",
        "name": "CANNES-MANDELIEU",
        "@geometry": "center"
      },
      "geometry": {
        "type": "Point",
        "coordinates": [
          6.953546358455483,
          43.54694548841218
        ]
      },
      "id": "csv/row_22"
    },
    {
      "type": "Feature",
      "properties": {
        "aeroway": "aerodrome",
        "iata": "CCF",
        "icao": "LFMK",
        "name": "CARCASSONNE-SALVAZA",
        "@geometry": "center"
      },
      "geometry": {
        "type": "Point",
        "coordinates": [
          2.3074903608325275,
          43.21435490317665
        ]
      },
      "id": "csv/row_23"
    },
    {
      "type": "Feature",
      "properties": {
        "aeroway": "aerodrome",
        "iata": "DCM",
        "icao": "LFCK",
        "name": "CASTRES-MAZAMET",
        "@geometry": "center"
      },
      "geometry": {
        "type": "Point",
        "coordinates": [
          2.2897557313141603,
          43.5539953745219
        ]
      },
      "id": "csv/row_24"
    },
    {
      "type": "Feature",
      "properties": {
        "aeroway": "aerodrome",
        "iata": "XCR",
        "icao": "LFOK",
        "name": "CHALONS-VATRY",
        "@geometry": "center"
      },
      "geometry": {
        "type": "Point",
        "coordinates": [
          4.189405944547455,
          48.780605915633544
        ]
      },
      "id": "csv/row_25"
    },
    {
      "type": "Feature",
      "properties": {
        "aeroway": "aerodrome",
        "iata": "CMF",
        "icao": "LFLB",
        "name": "CHAMBERY-AIX-LES-BAINS",
        "@geometry": "center"
      },
      "geometry": {
        "type": "Point",
        "coordinates": [
          5.883299756649322,
          45.6380628716202
        ]
      },
      "id": "csv/row_26"
    },
    {
      "type": "Feature",
      "properties": {
        "aeroway": "aerodrome",
        "iata": "CHR",
        "icao": "LFLX",
        "name": "CHATEAUROUX-DEOLS",
        "@geometry": "center"
      },
      "geometry": {
        "type": "Point",
        "coordinates": [
          1.7231168162259902,
          46.86082157019193
        ]
      },
      "id": "csv/row_27"
    },
    {
      "type": "Feature",
      "properties": {
        "aeroway": "aerodrome",
        "iata": "CER",
        "icao": "LFRC",
        "name": "CHERBOURG-MAUPERTUS",
        "@geometry": "center"
      },
      "geometry": {
        "type": "Point",
        "coordinates": [
          -1.47569140993374,
          49.64706380103873
        ]
      },
      "id": "csv/row_28"
    },
    {
      "type": "Feature",
      "properties": {
        "aeroway": "aerodrome",
        "iata": "CET",
        "icao": "LFOU",
        "name": "CHOLET-LE-PONTREAU",
        "@geometry": "center"
      },
      "geometry": {
        "type": "Point",
        "coordinates": [
          -0.8782243205692083,
          47.08064494908093
        ]
      },
      "id": "csv/row_29"
    },
    {
      "type": "Feature",
      "properties": {
        "aeroway": "aerodrome",
        "iata": "CFE",
        "icao": "LFLC",
        "name": "CLERMONT-FERRAND-CLERMONT-FERRAND/AUVERGNE",
        "@geometry": "center"
      },
      "geometry": {
        "type": "Point",
        "coordinates": [
          3.169495841308959,
          45.78674560235508
        ]
      },
      "id": "csv/row_30"
    },
    {
      "type": "Feature",
      "properties": {
        "aeroway": "aerodrome",
        "iata": "CMR",
        "icao": "LFGA",
        "name": "COLMAR-HOUSSEN",
        "@geometry": "center"
      },
      "geometry": {
        "type": "Point",
        "coordinates": [
          7.361782035807605,
          48.10936985160396
        ]
      },
      "id": "csv/row_31"
    },
    {
      "type": "Feature",
      "properties": {
        "aeroway": "aerodrome",
        "iata": "DOL",
        "icao": "LFRG",
        "name": "DEAUVILLE-ST-GATIEN",
        "@geometry": "center"
      },
      "geometry": {
        "type": "Point",
        "coordinates": [
          0.1582929366230559,
          49.36120678038576
        ]
      },
      "id": "csv/row_32"
    },
    {
      "type": "Feature",
      "properties": {
        "aeroway": "aerodrome",
        "iata": "DIJ",
        "icao": "LFSD",
        "name": "DIJON-LONGVIC",
        "@geometry": "center"
      },
      "geometry": {
        "type": "Point",
        "coordinates": [
          5.073318213605544,
          47.277813231496005
        ]
      },
      "id": "csv/row_33"
    },
    {
      "type": "Feature",
      "properties": {
        "aeroway": "aerodrome",
        "iata": "DNR",
        "icao": "LFRD",
        "name": "DINARD-PLEURTUIT-ST-MALO",
        "@geometry": "center"
      },
      "geometry": {
        "type": "Point",
        "coordinates": [
          -2.0770340599457304,
          48.58954747201423
        ]
      },
      "id": "csv/row_34"
    },
    {
      "type": "Feature",
      "properties": {
        "aeroway": "aerodrome",
        "iata": "DLE",
        "icao": "LFGJ",
        "name": "DOLE-TAVAUX",
        "@geometry": "center"
      },
      "geometry": {
        "type": "Point",
        "coordinates": [
          5.425068224928202,
          47.04339733572683
        ]
      },
      "id": "csv/row_35"
    },
    {
      "type": "Feature",
      "properties": {
        "aeroway": "aerodrome",
        "iata": "EPL",
        "icao": "LFSG",
        "name": "EPINAL-MIRECOURT",
        "@geometry": "center"
      },
      "geometry": {
        "type": "Point",
        "coordinates": [
          6.067310260903307,
          48.32161233555843
        ]
      },
      "id": "csv/row_36"
    },
    {
      "type": "Feature",
      "properties": {
        "aeroway": "aerodrome",
        "iata": "FSC",
        "icao": "LFKF",
        "name": "FIGARI-SUD-CORSE",
        "@geometry": "center"
      },
      "geometry": {
        "type": "Point",
        "coordinates": [
          9.098348000208683,
          41.49905337948456
        ]
      },
      "id": "csv/row_37"
    },
    {
      "type": "Feature",
      "properties": {
        "aeroway": "aerodrome",
        "iata": "GNB",
        "icao": "LFLS",
        "name": "GRENOBLE-ISERE",
        "@geometry": "center"
      },
      "geometry": {
        "type": "Point",
        "coordinates": [
          5.329353905058213,
          45.36222040893985
        ]
      },
      "id": "csv/row_38"
    },
    {
      "type": "Feature",
      "properties": {
        "aeroway": "aerodrome",
        "iata": "IDY",
        "icao": "LFEY",
        "name": "ILE-D'YEU-LE-GRAND-PHARE",
        "@geometry": "center"
      },
      "geometry": {
        "type": "Point",
        "coordinates": [
          -2.3889541911327314,
          46.71735563184242
        ]
      },
      "id": "csv/row_39"
    },
    {
      "type": "Feature",
      "properties": {
        "aeroway": "aerodrome",
        "iata": "LRH",
        "icao": "LFBH",
        "name": "LA-ROCHELLE-ILE-DE-RE",
        "@geometry": "center"
      },
      "geometry": {
        "type": "Point",
        "coordinates": [
          -1.1935712922863932,
          46.176314243460425
        ]
      },
      "id": "csv/row_40"
    },
    {
      "type": "Feature",
      "properties": {
        "aeroway": "aerodrome",
        "iata": "LAI",
        "icao": "LFRO",
        "name": "LANNION",
        "@geometry": "center"
      },
      "geometry": {
        "type": "Point",
        "coordinates": [
          -3.471517799099948,
          48.75686319832286
        ]
      },
      "id": "csv/row_41"
    },
    {
      "type": "Feature",
      "properties": {
        "aeroway": "aerodrome",
        "iata": "LVA",
        "icao": "LFOV",
        "name": "LAVAL-ENTRAMMES",
        "@geometry": "center"
      },
      "geometry": {
        "type": "Point",
        "coordinates": [
          -0.74027591869594,
          48.03185246267756
        ]
      },
      "id": "csv/row_42"
    },
    {
      "type": "Feature",
      "properties": {
        "aeroway": "aerodrome",
        "iata": "LEH",
        "icao": "LFOH",
        "name": "LE-HAVRE-OCTEVILLE-SUR-MER",
        "@geometry": "center"
      },
      "geometry": {
        "type": "Point",
        "coordinates": [
          0.09077907446654124,
          49.53157043410268
        ]
      },
      "id": "csv/row_43"
    },
    {
      "type": "Feature",
      "properties": {
        "aeroway": "aerodrome",
        "iata": "LME",
        "icao": "LFRM",
        "name": "LE-MANS-ARNAGE",
        "@geometry": "center"
      },
      "geometry": {
        "type": "Point",
        "coordinates": [
          0.19718208447212562,
          47.94626091132508
        ]
      },
      "id": "csv/row_44"
    },
    {
      "type": "Feature",
      "properties": {
        "aeroway": "aerodrome",
        "iata": "LPY",
        "icao": "LFHP",
        "name": "LE-PUY-LOUDES",
        "@geometry": "center"
      },
      "geometry": {
        "type": "Point",
        "coordinates": [
          3.7630621579556154,
          45.07531044359166
        ]
      },
      "id": "csv/row_45"
    },
    {
      "type": "Feature",
      "properties": {
        "aeroway": "aerodrome",
        "iata": "LTQ",
        "icao": "LFAT",
        "name": "LE-TOUQUET-PARIS-PLAGE",
        "@geometry": "center"
      },
      "geometry": {
        "type": "Point",
        "coordinates": [
          1.6198441691894145,
          50.5143038347638
        ]
      },
      "id": "csv/row_46"
    },
    {
      "type": "Feature",
      "properties": {
        "aeroway": "aerodrome",
        "iata": "LIL",
        "icao": "LFQQ",
        "name": "LILLE-LESQUIN",
        "@geometry": "center"
      },
      "geometry": {
        "type": "Point",
        "coordinates": [
          3.1008978022620464,
          50.56687988997394
        ]
      },
      "id": "csv/row_47"
    },
    {
      "type": "Feature",
      "properties": {
        "aeroway": "aerodrome",
        "iata": "LIG",
        "icao": "LFBL",
        "name": "LIMOGES-BELLEGARDE",
        "@geometry": "center"
      },
      "geometry": {
        "type": "Point",
        "coordinates": [
          1.177015995799356,
          45.86195327880596
        ]
      },
      "id": "csv/row_48"
    },
    {
      "type": "Feature",
      "properties": {
        "aeroway": "aerodrome",
        "iata": "LRT",
        "icao": "LFRH",
        "name": "LORIENT-LANN-BIHOUE",
        "@geometry": "center"
      },
      "geometry": {
        "type": "Point",
        "coordinates": [
          -3.442765267867084,
          47.75731999516446
        ]
      },
      "id": "csv/row_49"
    },
    {
      "type": "Feature",
      "properties": {
        "aeroway": "aerodrome",
        "iata": "LYN",
        "icao": "LFLY",
        "name": "LYON-BRON-BRON",
        "@geometry": "center"
      },
      "geometry": {
        "type": "Point",
        "coordinates": [
          4.936120253481348,
          45.73139047655547
        ]
      },
      "id": "csv/row_50"
    },
    {
      "type": "Feature",
      "properties": {
        "aeroway": "aerodrome",
        "iata": "LYS",
        "icao": "LFLL",
        "name": "LYON-SAINT-EXUPERY",
        "@geometry": "center"
      },
      "geometry": {
        "type": "Point",
        "coordinates": [
          5.087628813004346,
          45.7240547291113
        ]
      },
      "id": "csv/row_51"
    },
    {
      "type": "Feature",
      "properties": {
        "aeroway": "aerodrome",
        "iata": "MRS",
        "icao": "LFML",
        "name": "MARSEILLE-PROVENCE",
        "@geometry": "center"
      },
      "geometry": {
        "type": "Point",
        "coordinates": [
          5.214584864330087,
          43.44068112073206
        ]
      },
      "id": "csv/row_52"
    },
    {
      "type": "Feature",
      "properties": {
        "aeroway": "aerodrome",
        "iata": "ETZ",
        "icao": "LFJL",
        "name": "METZ-NANCY-LORRAINE",
        "@geometry": "center"
      },
      "geometry": {
        "type": "Point",
        "coordinates": [
          6.242755647468968,
          48.98191394908731
        ]
      },
      "id": "csv/row_53"
    },
    {
      "type": "Feature",
      "properties": {
        "aeroway": "aerodrome",
        "iata": "MCU",
        "icao": "LFBK",
        "name": "MONTLUCON-GUERET",
        "@geometry": "center"
      },
      "geometry": {
        "type": "Point",
        "coordinates": [
          2.359383792371084,
          46.22542610409899
        ]
      },
      "id": "csv/row_54"
    },
    {
      "type": "Feature",
      "properties": {
        "aeroway": "aerodrome",
        "iata": "MPL",
        "icao": "LFMT",
        "name": "MONTPELLIER-MEDITERRANEE",
        "@geometry": "center"
      },
      "geometry": {
        "type": "Point",
        "coordinates": [
          3.96490480448707,
          43.57981649897129
        ]
      },
      "id": "csv/row_55"
    },
    {
      "type": "Feature",
      "properties": {
        "aeroway": "aerodrome",
        "iata": "MXN",
        "icao": "LFRU",
        "name": "MORLAIX-PLOUJEAN",
        "@geometry": "center"
      },
      "geometry": {
        "type": "Point",
        "coordinates": [
          -3.8171639856113497,
          48.60005392531145
        ]
      },
      "id": "csv/row_56"
    },
    {
      "type": "Feature",
      "properties": {
        "aeroway": "aerodrome",
        "iata": "MLH",
        "icao": "LFSB",
        "name": "BALE-MULHOUSE",
        "@geometry": "center"
      },
      "geometry": {
        "type": "Point",
        "coordinates": [
          7.528608858931305,
          47.59825186533473
        ]
      },
      "id": "csv/row_57"
    },
    {
      "type": "Feature",
      "properties": {
        "aeroway": "aerodrome",
        "iata": "NTE",
        "icao": "LFRS",
        "name": "NANTES-ATLANTIQUE",
        "@geometry": "center"
      },
      "geometry": {
        "type": "Point",
        "coordinates": [
          -1.60357027976306,
          47.155220090652726
        ]
      },
      "id": "csv/row_58"
    },
    {
      "type": "Feature",
      "properties": {
        "aeroway": "aerodrome",
        "iata": "NCE",
        "icao": "LFMN",
        "name": "NICE-COTE-D'AZUR",
        "@geometry": "center"
      },
      "geometry": {
        "type": "Point",
        "coordinates": [
          7.206787381460226,
          43.659447104238026
        ]
      },
      "id": "csv/row_59"
    },
    {
      "type": "Feature",
      "properties": {
        "aeroway": "aerodrome",
        "iata": "FNI",
        "icao": "LFTW",
        "name": "NIMES-GARONS-",
        "@geometry": "center"
      },
      "geometry": {
        "type": "Point",
        "coordinates": [
          4.421329763212263,
          43.76279613917478
        ]
      },
      "id": "csv/row_60"
    },
    {
      "type": "Feature",
      "properties": {
        "aeroway": "aerodrome",
        "iata": "NIT",
        "icao": "LFBN",
        "name": "NIORT-SOUCHE",
        "@geometry": "center"
      },
      "geometry": {
        "type": "Point",
        "coordinates": [
          -0.4004032198616488,
          46.31419857436365
        ]
      },
      "id": "csv/row_61"
    },
    {
      "type": "Feature",
      "properties": {
        "aeroway": "aerodrome",
        "iata": "CDG",
        "icao": "LFPG",
        "name": "PARIS-CHARLES-DE-GAULLE",
        "@geometry": "center"
      },
      "geometry": {
        "type": "Point",
        "coordinates": [
          2.5470969628132867,
          49.01002574707991
        ]
      },
      "id": "csv/row_62"
    },
    {
      "type": "Feature",
      "properties": {
        "aeroway": "aerodrome",
        "iata": "LBG",
        "icao": "LFPB",
        "name": "PARIS-LE-BOURGET",
        "@geometry": "center"
      },
      "geometry": {
        "type": "Point",
        "coordinates": [
          2.4351841453635092,
          48.94954784976694
        ]
      },
      "id": "csv/row_63"
    },
    {
      "type": "Feature",
      "properties": {
        "aeroway": "aerodrome",
        "iata": "ORY",
        "icao": "LFPO",
        "name": "PARIS-ORLY",
        "@geometry": "center"
      },
      "geometry": {
        "type": "Point",
        "coordinates": [
          2.3625063453583017,
          48.726430244824904
        ]
      },
      "id": "csv/row_64"
    },
    {
      "type": "Feature",
      "properties": {
        "aeroway": "aerodrome",
        "iata": "PUF",
        "icao": "LFBP",
        "name": "PAU-PYRENEES",
        "@geometry": "center"
      },
      "geometry": {
        "type": "Point",
        "coordinates": [
          -0.41465682382031765,
          43.3818990123261
        ]
      },
      "id": "csv/row_65"
    },
    {
      "type": "Feature",
      "properties": {
        "aeroway": "aerodrome",
        "iata": "PGX",
        "icao": "LFBX",
        "name": "PERIGUEUX-BASSILLAC",
        "@geometry": "center"
      },
      "geometry": {
        "type": "Point",
        "coordinates": [
          0.8136846955183189,
          45.196699437026524
        ]
      },
      "id": "csv/row_66"
    },
    {
      "type": "Feature",
      "properties": {
        "aeroway": "aerodrome",
        "iata": "PGF",
        "icao": "LFMP",
        "name": "PERPIGNAN-RIVESALTES",
        "@geometry": "center"
      },
      "geometry": {
        "type": "Point",
        "coordinates": [
          2.8706941674160427,
          42.74158464188712
        ]
      },
      "id": "csv/row_67"
    },
    {
      "type": "Feature",
      "properties": {
        "aeroway": "aerodrome",
        "iata": "PIS",
        "icao": "LFBI",
        "name": "POITIERS-BIARD",
        "@geometry": "center"
      },
      "geometry": {
        "type": "Point",
        "coordinates": [
          0.3095533577358796,
          46.58617706469421
        ]
      },
      "id": "csv/row_68"
    },
    {
      "type": "Feature",
      "properties": {
        "aeroway": "aerodrome",
        "iata": "PRP",
        "icao": "LFKO",
        "name": "PROPRIANO",
        "@geometry": "center"
      },
      "geometry": {
        "type": "Point",
        "coordinates": [
          8.893301685667327,
          41.659485191562446
        ]
      },
      "id": "csv/row_69"
    },
    {
      "type": "Feature",
      "properties": {
        "aeroway": "aerodrome",
        "iata": "UIP",
        "icao": "LFRQ",
        "name": "QUIMPER-PLUGUFFAN",
        "@geometry": "center"
      },
      "geometry": {
        "type": "Point",
        "coordinates": [
          -4.174570297799577,
          47.97236981747102
        ]
      },
      "id": "csv/row_70"
    },
    {
      "type": "Feature",
      "properties": {
        "aeroway": "aerodrome",
        "iata": "RNS",
        "icao": "LFRN",
        "name": "RENNES-ST-JACQUES",
        "@geometry": "center"
      },
      "geometry": {
        "type": "Point",
        "coordinates": [
          -1.7277162575738334,
          48.06937566825959
        ]
      },
      "id": "csv/row_71"
    },
    {
      "type": "Feature",
      "properties": {
        "aeroway": "aerodrome",
        "iata": "RNE",
        "icao": "LFLO",
        "name": "ROANNE-RENAISON",
        "@geometry": "center"
      },
      "geometry": {
        "type": "Point",
        "coordinates": [
          4.002687445559067,
          46.05232460899868
        ]
      },
      "id": "csv/row_72"
    },
    {
      "type": "Feature",
      "properties": {
        "aeroway": "aerodrome",
        "iata": "RCO",
        "icao": "LFDN",
        "name": "ROCHEFORT-ST-AGNANT",
        "@geometry": "center"
      },
      "geometry": {
        "type": "Point",
        "coordinates": [
          -0.9840418298529019,
          45.88678829365565
        ]
      },
      "id": "csv/row_73"
    },
    {
      "type": "Feature",
      "properties": {
        "aeroway": "aerodrome",
        "iata": "RDZ",
        "icao": "LFCR",
        "name": "RODEZ-MARCILLAC",
        "@geometry": "center"
      },
      "geometry": {
        "type": "Point",
        "coordinates": [
          2.4818296785856724,
          44.41103773582677
        ]
      },
      "id": "csv/row_74"
    },
    {
      "type": "Feature",
      "properties": {
        "aeroway": "aerodrome",
        "iata": "URO",
        "icao": "LFOP",
        "name": "ROUEN-VALLEE-DE-SEINE",
        "@geometry": "center"
      },
      "geometry": {
        "type": "Point",
        "coordinates": [
          1.1860275400731448,
          49.38849131076176
        ]
      },
      "id": "csv/row_75"
    },
    {
      "type": "Feature",
      "properties": {
        "aeroway": "aerodrome",
        "iata": "SBK",
        "icao": "LFRT",
        "name": "SAINT-BRIEUC-ARMOR",
        "@geometry": "center"
      },
      "geometry": {
        "type": "Point",
        "coordinates": [
          -2.8555226334951724,
          48.535118812499626
        ]
      },
      "id": "csv/row_76"
    },
    {
      "type": "Feature",
      "properties": {
        "aeroway": "aerodrome",
        "iata": "EBU",
        "icao": "LFMH",
        "name": "SAINT-ETIENNE-BOUTHEON",
        "@geometry": "center"
      },
      "geometry": {
        "type": "Point",
        "coordinates": [
          4.294361477012015,
          45.53127406240273
        ]
      },
      "id": "csv/row_77"
    },
    {
      "type": "Feature",
      "properties": {
        "aeroway": "aerodrome",
        "iata": "SNR",
        "icao": "LFRZ",
        "name": "SAINT-NAZAIRE-MONTOIR",
        "@geometry": "center"
      },
      "geometry": {
        "type": "Point",
        "coordinates": [
          -2.15349113352347,
          47.31239037522721
        ]
      },
      "id": "csv/row_78"
    },
    {
      "type": "Feature",
      "properties": {
        "aeroway": "aerodrome",
        "iata": "SXB",
        "icao": "LFST",
        "name": "STRASBOURG-ENTZHEIM",
        "@geometry": "center"
      },
      "geometry": {
        "type": "Point",
        "coordinates": [
          7.628542397445619,
          48.54402695380181
        ]
      },
      "id": "csv/row_79"
    },
    {
      "type": "Feature",
      "properties": {
        "aeroway": "aerodrome",
        "iata": "LDE",
        "icao": "LFBT",
        "name": "TARBES-LOURDES-PYRENEES",
        "@geometry": "center"
      },
      "geometry": {
        "type": "Point",
        "coordinates": [
          0.0011966060768544714,
          43.185785875609874
        ]
      },
      "id": "csv/row_80"
    },
    {
      "type": "Feature",
      "properties": {
        "aeroway": "aerodrome",
        "iata": "TLN",
        "icao": "LFTH",
        "name": "HYERES-LE-PALYVESTRE",
        "@geometry": "center"
      },
      "geometry": {
        "type": "Point",
        "coordinates": [
          6.157423312947708,
          43.09337533651175
        ]
      },
      "id": "csv/row_81"
    },
    {
      "type": "Feature",
      "properties": {
        "aeroway": "aerodrome",
        "iata": "TLS",
        "icao": "LFBO",
        "name": "TOULOUSE-BLAGNAC",
        "@geometry": "center"
      },
      "geometry": {
        "type": "Point",
        "coordinates": [
          1.3666627589899005,
          43.630030830762
        ]
      },
      "id": "csv/row_82"
    },
    {
      "type": "Feature",
      "properties": {
        "aeroway": "aerodrome",
        "iata": "TUF",
        "icao": "LFOT",
        "name": "TOURS-VAL-DE-LOIRE",
        "@geometry": "center"
      },
      "geometry": {
        "type": "Point",
        "coordinates": [
          0.7198844881628439,
          47.42595283758694
        ]
      },
      "id": "csv/row_83"
    },
    {
      "type": "Feature",
      "properties": {
        "aeroway": "aerodrome",
        "iata": "QYR",
        "icao": "LFQB",
        "name": "TROYES-BARBEREY",
        "@geometry": "center"
      },
      "geometry": {
        "type": "Point",
        "coordinates": [
          4.018950885546311,
          48.32601593956796
        ]
      },
      "id": "csv/row_84"
    },
    {
      "type": "Feature",
      "properties": {
        "aeroway": "aerodrome",
        "iata": "VAF",
        "icao": "LFLU",
        "name": "VALENCE-CHABEUIL",
        "@geometry": "center"
      },
      "geometry": {
        "type": "Point",
        "coordinates": [
          4.9659772518653575,
          44.91548918377184
        ]
      },
      "id": "csv/row_85"
    },
    {
      "type": "Feature",
      "properties": {
        "aeroway": "aerodrome",
        "iata": "XVS",
        "icao": "LFAV",
        "name": "VALENCIENNES-DENAIN",
        "@geometry": "center"
      },
      "geometry": {
        "type": "Point",
        "coordinates": [
          3.4578264236867504,
          50.32975751112013
        ]
      },
      "id": "csv/row_86"
    },
    {
      "type": "Feature",
      "properties": {
        "aeroway": "aerodrome",
        "iata": "VHY",
        "icao": "LFLV",
        "name": "VICHY-CHARMEIL",
        "@geometry": "center"
      },
      "geometry": {
        "type": "Point",
        "coordinates": [
          3.399905489985658,
          46.16562964647921
        ]
      },
      "id": "csv/row_87"
    }
  ]
}