{"type":"FeatureCollection",
"features":[{"type":"Feature",
"geometry":{"type":"Point",
"coordinates":[5.33507867425385,
43.34886469236753]},
"properties":{"id":1778666300677,
"name":"Port de Marseille",
"created_at":"2026-05-13T09:58:20.677Z"}},
{"type":"Feature",
"geometry":{"type":"Point",
"coordinates":[5.931855280722203,
43.11681993918836]},
"properties":{"id":1778666348785,
"name":"Port de Toulon",
"created_at":"2026-05-13T09:59:08.785Z"}},
{"type":"Feature",
"geometry":{"type":"Point",
"coordinates":[7.288687465963704,
43.69279880974]},
"properties":{"id":1778666380290,
"name":"Port de Nice",
"created_at":"2026-05-13T09:59:40.290Z"}},
{"type":"Feature",
"geometry":{"type":"Point",
"coordinates":[3.714357060723785,
43.40497896981407]},
"properties":{"id":1778666574506,
"name":"Port de Sete",
"created_at":"2026-05-13T10:02:54.506Z"}},
{"type":"Feature",
"geometry":{"type":"Point",
"coordinates":[3.063842041642772,
43.01655833700576]},
"properties":{"id":1778666650658,
"name":"Port-la-Nouvelle",
"created_at":"2026-05-13T10:04:10.658Z"}},
{"type":"Feature",
"geometry":{"type":"Point",
"coordinates":[3.1107504265716273,
42.51787014215401]},
"properties":{"id":1778666725923,
"name":"Port-Vendres",
"created_at":"2026-05-13T10:05:25.923Z"}},
{"type":"Feature",
"geometry":{"type":"Point",
"coordinates":[-1.4948433875208877,
43.51318121115605]},
"properties":{"id":1778666834967,
"name":"Port de Bayonne",
"created_at":"2026-05-13T10:07:14.967Z"}},
{"type":"Feature",
"geometry":{"type":"Point",
"coordinates":[-0.5390258107333068,
44.90740052976335]},
"properties":{"id":1778666883897,
"name":"Port de Bordeaux",
"created_at":"2026-05-13T10:08:03.897Z"}},
{"type":"Feature",
"geometry":{"type":"Point",
"coordinates":[-1.1538612563933555,
46.15659827504763]},
"properties":{"id":1778666967736,
"name":"Port de La Rochelle",
"created_at":"2026-05-13T10:09:27.736Z"}},
{"type":"Feature",
"geometry":{"type":"Point",
"coordinates":[-0.9540918707235164,
45.94886064711807]},
"properties":{"id":1778667191410,
"name":"port de Rochefort",
"created_at":"2026-05-13T10:13:11.410Z"}},
{"type":"Feature",
"geometry":{"type":"Point",
"coordinates":[-2.2002152252102007,
47.278370123355614]},
"properties":{"id":1778667261543,
"name":"Port de Saint-Nazaire",
"created_at":"2026-05-13T10:14:21.543Z"}},
{"type":"Feature",
"geometry":{"type":"Point",
"coordinates":[-3.3561757211997474,
47.73241600521118]},
"properties":{"id":1778667322139,
"name":"Port de Lorient",
"created_at":"2026-05-13T10:15:22.139Z"}},
{"type":"Feature",
"geometry":{"type":"Point",
"coordinates":[-4.453624726761149,
48.3844903460394]},
"properties":{"id":1778667349227,
"name":"Port de Brest",
"created_at":"2026-05-13T10:15:49.227Z"}},
{"type":"Feature",
"geometry":{"type":"Point",
"coordinates":[-2.026337447320742,
48.64129857216972]},
"properties":{"id":1778667402341,
"name":"Port de Saint-Malo",
"created_at":"2026-05-13T10:16:42.341Z"}},
{"type":"Feature",
"geometry":{"type":"Point",
"coordinates":[-3.9642459834184365,
48.72171671017014]},
"properties":{"id":1778667454639,
"name":"Pot de Roscoff",
"created_at":"2026-05-13T10:17:34.639Z"}},
{"type":"Feature",
"geometry":{"type":"Point",
"coordinates":[-1.6120944938354285,
49.64709130758146]},
"properties":{"id":1778667532486,
"name":"Port de Cherbourg",
"created_at":"2026-05-13T10:18:52.486Z"}},
{"type":"Feature",
"geometry":{"type":"Point",
"coordinates":[2.362085482437209,
51.04244956652556]},
"properties":{"id":1778667573336,
"name":"Port de Dunkerque",
"created_at":"2026-05-13T10:19:33.336Z"}},
{"type":"Feature",
"geometry":{"type":"Point",
"coordinates":[1.8509501838558435,
50.96679946755398]},
"properties":{"id":1778667588716,
"name":"Port de Calais",
"created_at":"2026-05-13T10:19:48.716Z"}},
{"type":"Feature",
"geometry":{"type":"Point",
"coordinates":[1.5925543996881686,
50.725825144078016]},
"properties":{"id":1778667647058,
"name":"Port de Boulogne-sur-Mer",
"created_at":"2026-05-13T10:20:47.058Z"}},
{"type":"Feature",
"geometry":{"type":"Point",
"coordinates":[1.0882922661839984,
49.93361085954942]},
"properties":{"id":1778667695620,
"name":"Port de Dieppe",
"created_at":"2026-05-13T10:21:35.620Z"}},
{"type":"Feature",
"geometry":{"type":"Point",
"coordinates":[0.16712881768660282,
49.46898612681204]},
"properties":{"id":1778672443083,
"name":"port du Havre",
"created_at":"2026-05-13T11:40:43.083Z"}},
{"type":"Feature",
"geometry":{"type":"Point",
"coordinates":[1.0385739022154326,
49.43409171195026]},
"properties":{"id":1778672496962,
"name":"Port de Rouen",
"created_at":"2026-05-13T11:41:36.962Z"}},
{"type":"Feature",
"geometry":{"type":"Point",
"coordinates":[-0.3206159908089319,
49.194201341963776]},
"properties":{"id":1778672541095,
"name":"Port de Caen",
"created_at":"2026-05-13T11:42:21.095Z"}},
{"type":"Feature",
"geometry":{"type":"Point",
"coordinates":[-0.24875603822707149,
49.28894411251906]},
"properties":{"id":1778672586443,
"name":"Port de Ouistreham",
"created_at":"2026-05-13T11:43:06.443Z"}},
{"type":"Feature",
"geometry":{"type":"Point",
"coordinates":[2.2860070206784258,
48.94310174521871]},
"properties":{"id":1778672694454,
"name":"Port de Gennevilliers",
"created_at":"2026-05-13T11:44:54.454Z"}},
{"type":"Feature",
"geometry":{"type":"Point",
"coordinates":[2.49037108222376,
48.780357424522265]},
"properties":{"id":1778672767468,
"name":"Port de Bonneuil",
"created_at":"2026-05-13T11:46:07.468Z"}},
{"type":"Feature",
"geometry":{"type":"Point",
"coordinates":[1.7466791450316919,
48.97497909441964]},
"properties":{"id":1778672874145,
"name":"Port de Limay-Porcheville",
"created_at":"2026-05-13T11:47:54.145Z"}},
{"type":"Feature",
"geometry":{"type":"Point",
"coordinates":[2.461193133155433,
48.62972758385391]},
"properties":{"id":1778672957381,
"name":"Port d'Evry",
"created_at":"2026-05-13T11:49:17.381Z"}},
{"type":"Feature",
"geometry":{"type":"Point",
"coordinates":[3.491186546322524,
48.49116915928036]},
"properties":{"id":1778673070446,
"name":"Port de Nogent-sur-Seine",
"created_at":"2026-05-13T11:51:10.446Z"}},
{"type":"Feature",
"geometry":{"type":"Point",
"coordinates":[2.439311468892555,
48.736096241367875]},
"properties":{"id":1778673274529,
"name":"Port de Villeneuve-le-Roi",
"created_at":"2026-05-13T11:54:34.529Z"}},
{"type":"Feature",
"geometry":{"type":"Point",
"coordinates":[2.3397747944544847,
48.928118077382294]},
"properties":{"id":1778673330564,
"name":"Port de Saint-Denis",
"created_at":"2026-05-13T11:55:30.564Z"}},
{"type":"Feature",
"geometry":{"type":"Point",
"coordinates":[6.3709751524665705,
43.13681802288369]},
"properties":{"id":1778673564971,
"name":"Port du Lavandou",
"created_at":"2026-05-13T11:59:24.971Z"}},
{"type":"Feature",
"geometry":{"type":"Point",
"coordinates":[6.15482823559762,
43.027193047636956]},
"properties":{"id":1778673641097,
"name":"Port de la Tour Fondue",
"created_at":"2026-05-13T12:00:41.097Z"}},
{"type":"Feature",
"geometry":{"type":"Point",
"coordinates":[6.200598154000232,
43.0031792277351]},
"properties":{"id":1778673662968,
"name":"Port de Porquerolles",
"created_at":"2026-05-13T12:01:02.968Z"}},
{"type":"Feature",
"geometry":{"type":"Point",
"coordinates":[5.882963300890935,
43.105234750476455]},
"properties":{"id":1778673755575,
"name":"Port de la Seyne-sur-Mer",
"created_at":"2026-05-13T12:02:35.575Z"}},
{"type":"Feature",
"geometry":{"type":"Point",
"coordinates":[4.998414057531079,
43.403817082064165]},
"properties":{"id":1778673863480,
"name":"Port de Port-de-Bouc",
"created_at":"2026-05-13T12:04:23.480Z"}},
{"type":"Feature",
"geometry":{"type":"Point",
"coordinates":[4.845022813848772,
43.41014808822635]},
"properties":{"id":1778673925826,
"name":"Port de Fos",
"created_at":"2026-05-13T12:05:25.826Z"}},
{"type":"Feature",
"geometry":{"type":"Point",
"coordinates":[-1.040288027854217,
45.537339232201816]},
"properties":{"id":1778674307504,
"name":"Port de Verdon",
"created_at":"2026-05-13T12:11:47.504Z"}},
{"type":"Feature",
"geometry":{"type":"Point",
"coordinates":[-5.054899619915233,
48.46966561960275]},
"properties":{"id":1778674477807,
"name":"Port du Stiff",
"created_at":"2026-05-13T12:14:37.807Z"}},
{"type":"Feature",
"geometry":{"type":"Point",
"coordinates":[0.23998608556684076,
49.42768930284507]},
"properties":{"id":1778674605087,
"name":"Port d'Honfleur",
"created_at":"2026-05-13T12:16:45.087Z"}},
{"type":"Feature",
"geometry":{"type":"Point",
"coordinates":[0.3712632737938293,
49.761443492927356]},
"properties":{"id":1778674636769,
"name":"Port de Fecamp",
"created_at":"2026-05-13T12:17:16.769Z"}},
{"type":"Feature",
"geometry":{"type":"Point",
"coordinates":[1.381063312472321,
50.06116506850765]},
"properties":{"id":1778674733621,
"name":"Port du Tréport",
"created_at":"2026-05-13T12:18:53.621Z"}},
{"type":"Feature",
"geometry":{"type":"Point",
"coordinates":[2.1828753205766986,
51.00818078377657]},
"properties":{"id":1778674786684,
"name":"Terminal des Flandres",
"created_at":"2026-05-13T12:19:46.684Z"}},
{"type":"Feature",
"geometry":{"type":"Point",
"coordinates":[2.879157515313068,
50.494026911920315]},
"properties":{"id":1778674837175,
"name":"Terminal styrénier d’Inéos Styrolution",
"created_at":"2026-05-13T12:20:37.175Z"}},
{"type":"Feature",
"geometry":{"type":"Point",
"coordinates":[3.5489030873455647,
50.3932149742825]},
"properties":{"id":1778674874462,
"name":"Port Fluvial de Valenciennes",
"created_at":"2026-05-13T12:21:14.462Z"}},
{"type":"Feature",
"geometry":{"type":"Point",
"coordinates":[3.447250285313487,
50.31481446277465]},
"properties":{"id":1778674922149,
"name":"Contargo Prouvy",
"created_at":"2026-05-13T12:22:02.149Z"}},
{"type":"Feature",
"geometry":{"type":"Point",
"coordinates":[4.829016316375345,
50.149168637928625]},
"properties":{"id":1778674960141,
"name":"port de Givet",
"created_at":"2026-05-13T12:22:40.141Z"}},
{"type":"Feature",
"geometry":{"type":"Point",
"coordinates":[4.795265137762556,
50.12396718074305]},
"properties":{"id":1778675012593,
"name":"Plateforme portuaire des Trois Fontaines",
"created_at":"2026-05-13T12:23:32.593Z"}},
{"type":"Feature",
"geometry":{"type":"Point",
"coordinates":[1.9317752100140524,
49.00438803994899]},
"properties":{"id":1778675062733,
"name":"Port Magellan",
"created_at":"2026-05-13T12:24:22.733Z"}},
{"type":"Feature",
"geometry":{"type":"Point",
"coordinates":[2.0905011501883735,
48.99111734392113]},
"properties":{"id":1778675157100,
"name":"Port de Conflans",
"created_at":"2026-05-13T12:25:57.100Z"}},
{"type":"Feature",
"geometry":{"type":"Point",
"coordinates":[2.5703402919461382,
48.8661771080161]},
"properties":{"id":1778675252627,
"name":"Port de Gournay",
"created_at":"2026-05-13T12:27:32.627Z"}},
{"type":"Feature",
"geometry":{"type":"Point",
"coordinates":[4.623618728343558,
43.70111771176224]},
"properties":{"id":1778675423481,
"name":"Port d'Arles",
"created_at":"2026-05-13T12:30:23.481Z"}},
{"type":"Feature",
"geometry":{"type":"Point",
"coordinates":[4.863086056785619,
44.87817953448035]},
"properties":{"id":1778675450813,
"name":"Port de commerce de la Drôme",
"created_at":"2026-05-13T12:30:50.813Z"}},
{"type":"Feature",
"geometry":{"type":"Point",
"coordinates":[5.885866188791283,
45.70491013188317]},
"properties":{"id":1778675552495,
"name":"Grand Port",
"created_at":"2026-05-13T12:32:32.495Z"}},
{"type":"Feature",
"geometry":{"type":"Point",
"coordinates":[5.173947336421577,
47.04060793153212]},
"properties":{"id":1778675621399,
"name":"Port de Pagny le Chateau",
"created_at":"2026-05-13T12:33:41.399Z"}},
{"type":"Feature",
"geometry":{"type":"Point",
"coordinates":[7.380496499865529,
47.76446265122061]},
"properties":{"id":1778675664039,
"name":"Port de Mulhouse",
"created_at":"2026-05-13T12:34:24.039Z"}},
{"type":"Feature",
"geometry":{"type":"Point",
"coordinates":[7.526227887343424,
47.79133786004434]},
"properties":{"id":1778675690555,
"name":"Le Port Industriel de Mulhouse-Ottmarsheim",
"created_at":"2026-05-13T12:34:50.555Z"}},
{"type":"Feature",
"geometry":{"type":"Point",
"coordinates":[7.589832716215227,
47.602961063171534]},
"properties":{"id":1778675724137,
"name":"Port de Mulhouse-Rhin - Huningue",
"created_at":"2026-05-13T12:35:24.137Z"}},
{"type":"Feature",
"geometry":{"type":"Point",
"coordinates":[7.564584471135532,
48.03228814769258]},
"properties":{"id":1778675788169,
"name":"Port Rhénan Colmar Neuf Brisach",
"created_at":"2026-05-13T12:36:28.169Z"}},
{"type":"Feature",
"geometry":{"type":"Point",
"coordinates":[7.795647883339711,
48.5438799978979]},
"properties":{"id":1778675816163,
"name":"Port Autonome de Strasbourg",
"created_at":"2026-05-13T12:36:56.163Z"}},
{"type":"Feature",
"geometry":{"type":"Point",
"coordinates":[8.184640256421858,
48.953979665688365]},
"properties":{"id":1778675878651,
"name":"Lauterbourg Rhine Terminal",
"created_at":"2026-05-13T12:37:58.651Z"}},
{"type":"Feature",
"geometry":{"type":"Point",
"coordinates":[6.148439226307005,
48.75395037860446]},
"properties":{"id":1778675930990,
"name":"Port de Nancy-Frouard",
"created_at":"2026-05-13T12:38:50.990Z"}},
{"type":"Feature",
"geometry":{"type":"Point",
"coordinates":[6.180369496288051,
49.27005145418093]},
"properties":{"id":1778676008052,
"name":"Port privé de Mondelange-Richemont",
"created_at":"2026-05-13T12:40:08.052Z"}},
{"type":"Feature",
"geometry":{"type":"Point",
"coordinates":[6.15966673709255,
49.32248647320972]},
"properties":{"id":1778676025671,
"name":"Port de Thionville-Illange",
"created_at":"2026-05-13T12:40:25.671Z"}},
{"type":"Feature",
"geometry":{"type":"Point",
"coordinates":[2.983127005485329,
50.44811549849763]},
"properties":{"id":1778676199915,
"name":"Lille Dourges Terminal Conteneur",
"created_at":"2026-05-13T12:43:19.915Z"}},
{"type":"Feature",
"geometry":{"type":"Point",
"coordinates":[2.6729112932816292,
50.53735821356608]},
"properties":{"id":1778676304957,
"name":"Port de Béthune",
"created_at":"2026-05-13T12:45:04.957Z"}},
{"type":"Feature",
"geometry":{"type":"Point",
"coordinates":[4.834089869212164,
45.71941519833746]},
"properties":{"id":1778676397294,
"name":"Port de Lyon",
"created_at":"2026-05-13T12:46:37.294Z"}},
{"type":"Feature",
"geometry":{"type":"Point",
"coordinates":[4.749695245324801,
45.98042783921605]},
"properties":{"id":1778676469914,
"name":"Port fluvial de Villefranche-sur-Saône",
"created_at":"2026-05-13T12:47:49.914Z"}},
{"type":"Feature",
"geometry":{"type":"Point",
"coordinates":[4.876099260202636,
46.759064937234456]},
"properties":{"id":1778676646294,
"name":"Port de Chalon-sur-Saone",
"created_at":"2026-05-13T12:50:46.294Z"}}]}