{
  "type": "FeatureCollection",
  "features": [
    {
      "type": "Feature",
      "geometry": {
        "type": "Point",
        "coordinates": [
          2.570665,
          49.003965
        ]
      },
      "properties": {
        "nom": "Aéroport Charles-de-Gaulle 2 TGV",
        "nom_sncf": "Aéroport - Charles-de-Gaulle 2 RER",
        "departement": "Seine-Saint-Denis",
        "region": "Île-de-France",
        "type": "tgv"
      }
    },
    {
      "type": "Feature",
      "geometry": {
        "type": "Point",
        "coordinates": [
          3.466203,
          43.31728
        ]
      },
      "properties": {
        "nom": "Agde",
        "nom_sncf": "Agde",
        "departement": "Hérault",
        "region": "Occitanie",
        "type": "tgv"
      }
    },
    {
      "type": "Feature",
      "geometry": {
        "type": "Point",
        "coordinates": [
          0.620867,
          44.207967
        ]
      },
      "properties": {
        "nom": "Agen",
        "nom_sncf": "Agen",
        "departement": "Lot-et-Garonne",
        "region": "Nouvelle-Aquitaine",
        "type": "tgv"
      }
    },
    {
      "type": "Feature",
      "geometry": {
        "type": "Point",
        "coordinates": [
          6.648614,
          45.554387
        ]
      },
      "properties": {
        "nom": "Aime-La Plagne",
        "nom_sncf": "Aime - La Plagne",
        "departement": "Savoie",
        "region": "Auvergne-Rhône-Alpes",
        "type": "tgv"
      }
    },
    {
      "type": "Feature",
      "geometry": {
        "type": "Point",
        "coordinates": [
          5.316806,
          43.455722
        ]
      },
      "properties": {
        "nom": "Aix-en-Provence TGV",
        "nom_sncf": "Aix-en-Provence TGV",
        "departement": "Bouches-du-Rhône",
        "region": "Provence-Alpes-Côte d'Azur",
        "type": "tgv"
      }
    },
    {
      "type": "Feature",
      "geometry": {
        "type": "Point",
        "coordinates": [
          5.909371,
          45.688161
        ]
      },
      "properties": {
        "nom": "Aix-les-Bains-Le Revard",
        "nom_sncf": "Aix-les-Bains - Le Revard",
        "departement": "Savoie",
        "region": "Auvergne-Rhône-Alpes",
        "type": "tgv"
      }
    },
    {
      "type": "Feature",
      "geometry": {
        "type": "Point",
        "coordinates": [
          6.383167,
          45.672977
        ]
      },
      "properties": {
        "nom": "Albertville",
        "nom_sncf": "Albertville",
        "departement": "Savoie",
        "region": "Auvergne-Rhône-Alpes",
        "type": "tgv"
      }
    },
    {
      "type": "Feature",
      "geometry": {
        "type": "Point",
        "coordinates": [
          2.308277,
          49.890584
        ]
      },
      "properties": {
        "nom": "Amiens",
        "nom_sncf": "Amiens",
        "departement": "Somme",
        "region": "Hauts-de-France",
        "type": "tgv"
      }
    },
    {
      "type": "Feature",
      "geometry": {
        "type": "Point",
        "coordinates": [
          -1.177763,
          47.369334
        ]
      },
      "properties": {
        "nom": "Ancenis",
        "nom_sncf": "Ancenis",
        "departement": "Loire-Atlantique",
        "region": "Pays de la Loire",
        "type": "tgv"
      }
    },
    {
      "type": "Feature",
      "geometry": {
        "type": "Point",
        "coordinates": [
          -0.55677,
          47.464649
        ]
      },
      "properties": {
        "nom": "Angers-Saint-Laud",
        "nom_sncf": "Angers Saint-Laud",
        "departement": "Maine-et-Loire",
        "region": "Pays de la Loire",
        "type": "tgv"
      }
    },
    {
      "type": "Feature",
      "geometry": {
        "type": "Point",
        "coordinates": [
          0.164608,
          45.653572
        ]
      },
      "properties": {
        "nom": "Angoulême",
        "nom_sncf": "Angoulême",
        "departement": "Charente",
        "region": "Nouvelle-Aquitaine",
        "type": "tgv"
      }
    },
    {
      "type": "Feature",
      "geometry": {
        "type": "Point",
        "coordinates": [
          6.121826,
          45.902047
        ]
      },
      "properties": {
        "nom": "Annecy",
        "nom_sncf": "Annecy",
        "departement": "Haute-Savoie",
        "region": "Auvergne-Rhône-Alpes",
        "type": "tgv"
      }
    },
    {
      "type": "Feature",
      "geometry": {
        "type": "Point",
        "coordinates": [
          6.236431,
          46.199245
        ]
      },
      "properties": {
        "nom": "Annemasse",
        "nom_sncf": "Annemasse",
        "departement": "Haute-Savoie",
        "region": "Auvergne-Rhône-Alpes",
        "type": "tgv"
      }
    },
    {
      "type": "Feature",
      "geometry": {
        "type": "Point",
        "coordinates": [
          7.119913,
          43.585971
        ]
      },
      "properties": {
        "nom": "Antibes",
        "nom_sncf": "Antibes",
        "departement": "Alpes-Maritimes",
        "region": "Provence-Alpes-Côte d'Azur",
        "type": "tgv"
      }
    },
    {
      "type": "Feature",
      "geometry": {
        "type": "Point",
        "coordinates": [
          -1.165323,
          44.658967
        ]
      },
      "properties": {
        "nom": "Arcachon",
        "nom_sncf": "Arcachon",
        "departement": "Gironde",
        "region": "Nouvelle-Aquitaine",
        "type": "tgv"
      }
    },
    {
      "type": "Feature",
      "geometry": {
        "type": "Point",
        "coordinates": [
          6.482424,
          43.455725
        ]
      },
      "properties": {
        "nom": "Les Arcs - Draguignan",
        "nom_sncf": "Les Arcs - Draguignan",
        "departement": "Var",
        "region": "Provence-Alpes-Côte d'Azur",
        "type": "tgv"
      }
    },
    {
      "type": "Feature",
      "geometry": {
        "type": "Point",
        "coordinates": [
          4.632105,
          43.684863
        ]
      },
      "properties": {
        "nom": "Arles",
        "nom_sncf": "Arles",
        "departement": "Bouches-du-Rhône",
        "region": "Provence-Alpes-Côte d'Azur",
        "type": "tgv"
      }
    },
    {
      "type": "Feature",
      "geometry": {
        "type": "Point",
        "coordinates": [
          2.781314,
          50.286971
        ]
      },
      "properties": {
        "nom": "Arras",
        "nom_sncf": "Arras",
        "departement": "Pas-de-Calais",
        "region": "Hauts-de-France",
        "type": "tgv"
      }
    },
    {
      "type": "Feature",
      "geometry": {
        "type": "Point",
        "coordinates": [
          -2.999363,
          47.680085
        ]
      },
      "properties": {
        "nom": "Auray",
        "nom_sncf": "Auray",
        "departement": "Morbihan",
        "region": "Bretagne",
        "type": "tgv"
      }
    },
    {
      "type": "Feature",
      "geometry": {
        "type": "Point",
        "coordinates": [
          4.805269,
          43.941923
        ]
      },
      "properties": {
        "nom": "Avignon TGV",
        "nom_sncf": "Avignon Centre",
        "departement": "Vaucluse",
        "region": "Provence-Alpes-Côte d'Azur",
        "type": "tgv"
      }
    },
    {
      "type": "Feature",
      "geometry": {
        "type": "Point",
        "coordinates": [
          5.167053,
          48.773598
        ]
      },
      "properties": {
        "nom": "Bar-le-Duc",
        "nom_sncf": "Bar-le-Duc",
        "departement": "Meuse",
        "region": "Grand Est",
        "type": "tgv"
      }
    },
    {
      "type": "Feature",
      "geometry": {
        "type": "Point",
        "coordinates": [
          -2.38921,
          47.288459
        ]
      },
      "properties": {
        "nom": "La Baule-Escoublac",
        "nom_sncf": "La Baule-Escoublac",
        "departement": "Loire-Atlantique",
        "region": "Pays de la Loire",
        "type": "tgv"
      }
    },
    {
      "type": "Feature",
      "geometry": {
        "type": "Point",
        "coordinates": [
          -1.470368,
          43.496793
        ]
      },
      "properties": {
        "nom": "Bayonne",
        "nom_sncf": "Bayonne",
        "departement": "Pyrénées-Atlantiques",
        "region": "Nouvelle-Aquitaine",
        "type": "tgv"
      }
    },
    {
      "type": "Feature",
      "geometry": {
        "type": "Point",
        "coordinates": [
          4.848423,
          47.023014
        ]
      },
      "properties": {
        "nom": "Beaune",
        "nom_sncf": "Beaune",
        "departement": "Côte-d'Or",
        "region": "Bourgogne-Franche-Comté",
        "type": "tgv"
      }
    },
    {
      "type": "Feature",
      "geometry": {
        "type": "Point",
        "coordinates": [
          6.897984,
          47.585105
        ]
      },
      "properties": {
        "nom": "Belfort - Montbéliard TGV",
        "nom_sncf": "Belfort - Montbéliard TGV",
        "departement": "Territoire de Belfort",
        "region": "Bourgogne-Franche-Comté",
        "type": "tgv"
      }
    },
    {
      "type": "Feature",
      "geometry": {
        "type": "Point",
        "coordinates": [
          5.825958,
          46.110904
        ]
      },
      "properties": {
        "nom": "Bellegarde",
        "nom_sncf": "Bellegarde-sur-Valserine Gare",
        "departement": "Ain",
        "region": "Auvergne-Rhône-Alpes",
        "type": "tgv"
      }
    },
    {
      "type": "Feature",
      "geometry": {
        "type": "Point",
        "coordinates": [
          5.953613,
          47.307215
        ]
      },
      "properties": {
        "nom": "Besançon Franche-Comté TGV",
        "nom_sncf": "Besançon Franche-Comté TGV",
        "departement": "Doubs",
        "region": "Bourgogne-Franche-Comté",
        "type": "tgv"
      }
    },
    {
      "type": "Feature",
      "geometry": {
        "type": "Point",
        "coordinates": [
          6.021943,
          47.247049
        ]
      },
      "properties": {
        "nom": "Besançon-Viotte",
        "nom_sncf": "Besançon Viotte",
        "departement": "Doubs",
        "region": "Bourgogne-Franche-Comté",
        "type": "tgv"
      }
    },
    {
      "type": "Feature",
      "geometry": {
        "type": "Point",
        "coordinates": [
          2.640509,
          50.521454
        ]
      },
      "properties": {
        "nom": "Béthune",
        "nom_sncf": "Béthune",
        "departement": "Pas-de-Calais",
        "region": "Hauts-de-France",
        "type": "tgv"
      }
    },
    {
      "type": "Feature",
      "geometry": {
        "type": "Point",
        "coordinates": [
          3.218895,
          43.336295
        ]
      },
      "properties": {
        "nom": "Béziers",
        "nom_sncf": "Béziers",
        "departement": "Hérault",
        "region": "Occitanie",
        "type": "tgv"
      }
    },
    {
      "type": "Feature",
      "geometry": {
        "type": "Point",
        "coordinates": [
          -1.545937,
          43.459387
        ]
      },
      "properties": {
        "nom": "Biarritz",
        "nom_sncf": "Biarritz",
        "departement": "Pyrénées-Atlantiques",
        "region": "Nouvelle-Aquitaine",
        "type": "tgv"
      }
    },
    {
      "type": "Feature",
      "geometry": {
        "type": "Point",
        "coordinates": [
          -0.556697,
          44.825873
        ]
      },
      "properties": {
        "nom": "Bordeaux-Saint-Jean",
        "nom_sncf": "Bordeaux Saint-Jean",
        "departement": "Gironde",
        "region": "Nouvelle-Aquitaine",
        "type": "tgv"
      }
    },
    {
      "type": "Feature",
      "geometry": {
        "type": "Point",
        "coordinates": [
          1.609036,
          50.727284
        ]
      },
      "properties": {
        "nom": "Boulogne-Ville",
        "nom_sncf": "Boulogne Tintelleries",
        "departement": "Pas-de-Calais",
        "region": "Hauts-de-France",
        "type": "tgv"
      }
    },
    {
      "type": "Feature",
      "geometry": {
        "type": "Point",
        "coordinates": [
          5.215011,
          46.200111
        ]
      },
      "properties": {
        "nom": "Bourg-en-Bresse",
        "nom_sncf": "Bourg-en-Bresse",
        "departement": "Ain",
        "region": "Auvergne-Rhône-Alpes",
        "type": "tgv"
      }
    },
    {
      "type": "Feature",
      "geometry": {
        "type": "Point",
        "coordinates": [
          6.771273,
          45.619036
        ]
      },
      "properties": {
        "nom": "Bourg-Saint-Maurice",
        "nom_sncf": "Bourg-Saint-Maurice",
        "departement": "Savoie",
        "region": "Auvergne-Rhône-Alpes",
        "type": "tgv"
      }
    },
    {
      "type": "Feature",
      "geometry": {
        "type": "Point",
        "coordinates": [
          -4.480094,
          48.387693
        ]
      },
      "properties": {
        "nom": "Brest",
        "nom_sncf": "Brest",
        "departement": "Finistère",
        "region": "Bretagne",
        "type": "tgv"
      }
    },
    {
      "type": "Feature",
      "geometry": {
        "type": "Point",
        "coordinates": [
          1.811178,
          50.901247
        ]
      },
      "properties": {
        "nom": "Calais - Fréthun",
        "nom_sncf": "Calais - Fréthun",
        "departement": "Pas-de-Calais",
        "region": "Hauts-de-France",
        "type": "tgv"
      }
    },
    {
      "type": "Feature",
      "geometry": {
        "type": "Point",
        "coordinates": [
          1.850885,
          50.953466
        ]
      },
      "properties": {
        "nom": "Calais-Ville",
        "nom_sncf": "Calais Ville",
        "departement": "Pas-de-Calais",
        "region": "Hauts-de-France",
        "type": "tgv"
      }
    },
    {
      "type": "Feature",
      "geometry": {
        "type": "Point",
        "coordinates": [
          7.019711,
          43.553908
        ]
      },
      "properties": {
        "nom": "Cannes",
        "nom_sncf": "Cannes",
        "departement": "Alpes-Maritimes",
        "region": "Provence-Alpes-Côte d'Azur",
        "type": "tgv"
      }
    },
    {
      "type": "Feature",
      "geometry": {
        "type": "Point",
        "coordinates": [
          2.351824,
          43.218029
        ]
      },
      "properties": {
        "nom": "Carcassonne",
        "nom_sncf": "Carcassonne",
        "departement": "Aude",
        "region": "Occitanie",
        "type": "tgv"
      }
    },
    {
      "type": "Feature",
      "geometry": {
        "type": "Point",
        "coordinates": [
          4.843479,
          46.781622
        ]
      },
      "properties": {
        "nom": "Chalon-sur-Saône",
        "nom_sncf": "Chalon-sur-Saône",
        "departement": "Saône-et-Loire",
        "region": "Bourgogne-Franche-Comté",
        "type": "tgv"
      }
    },
    {
      "type": "Feature",
      "geometry": {
        "type": "Point",
        "coordinates": [
          4.348656,
          48.955252
        ]
      },
      "properties": {
        "nom": "Châlons-en-Champagne",
        "nom_sncf": "Châlons-en-Champagne",
        "departement": "Marne",
        "region": "Grand Est",
        "type": "tgv"
      }
    },
    {
      "type": "Feature",
      "geometry": {
        "type": "Point",
        "coordinates": [
          5.919547,
          45.571302
        ]
      },
      "properties": {
        "nom": "Chambéry - Challes-les-Eaux",
        "nom_sncf": "Chambéry - Challes-les-Eaux",
        "departement": "Savoie",
        "region": "Auvergne-Rhône-Alpes",
        "type": "tgv"
      }
    },
    {
      "type": "Feature",
      "geometry": {
        "type": "Point",
        "coordinates": [
          3.994523,
          49.214769
        ]
      },
      "properties": {
        "nom": "Champagne-Ardenne TGV",
        "nom_sncf": "Champagne-Ardenne TGV",
        "departement": "Marne",
        "region": "Grand Est",
        "type": "tgv"
      }
    },
    {
      "type": "Feature",
      "geometry": {
        "type": "Point",
        "coordinates": [
          4.724344,
          49.76763
        ]
      },
      "properties": {
        "nom": "Charleville-Mézières",
        "nom_sncf": "Charleville-Mézières",
        "departement": "Ardennes",
        "region": "Grand Est",
        "type": "tgv"
      }
    },
    {
      "type": "Feature",
      "geometry": {
        "type": "Point",
        "coordinates": [
          0.549279,
          46.818594
        ]
      },
      "properties": {
        "nom": "Châtellerault",
        "nom_sncf": "Châtellerault",
        "departement": "Vienne",
        "region": "Nouvelle-Aquitaine",
        "type": "tgv"
      }
    },
    {
      "type": "Feature",
      "geometry": {
        "type": "Point",
        "coordinates": [
          6.582771,
          46.061468
        ]
      },
      "properties": {
        "nom": "Cluses",
        "nom_sncf": "Cluses",
        "departement": "Haute-Savoie",
        "region": "Auvergne-Rhône-Alpes",
        "type": "tgv"
      }
    },
    {
      "type": "Feature",
      "geometry": {
        "type": "Point",
        "coordinates": [
          7.347756,
          48.073527
        ]
      },
      "properties": {
        "nom": "Colmar",
        "nom_sncf": "Colmar",
        "departement": "Haut-Rhin",
        "region": "Grand Est",
        "type": "tgv"
      }
    },
    {
      "type": "Feature",
      "geometry": {
        "type": "Point",
        "coordinates": [
          4.49943,
          46.765339
        ]
      },
      "properties": {
        "nom": "Le Creusot - Montceau - Montchanin",
        "nom_sncf": "Le Creusot - Montceau-les-Mines - Montchanin TGV",
        "departement": "Saône-et-Loire",
        "region": "Bourgogne-Franche-Comté",
        "type": "tgv"
      }
    },
    {
      "type": "Feature",
      "geometry": {
        "type": "Point",
        "coordinates": [
          -2.50734,
          47.289889
        ]
      },
      "properties": {
        "nom": "Le Croisic",
        "nom_sncf": "Le Croisic",
        "departement": "Loire-Atlantique",
        "region": "Pays de la Loire",
        "type": "tgv"
      }
    },
    {
      "type": "Feature",
      "geometry": {
        "type": "Point",
        "coordinates": [
          3.138069,
          50.678528
        ]
      },
      "properties": {
        "nom": "Croix - Wasquehal",
        "nom_sncf": "Croix - Wasquehal",
        "departement": "Nord",
        "region": "Hauts-de-France",
        "type": "tgv"
      }
    },
    {
      "type": "Feature",
      "geometry": {
        "type": "Point",
        "coordinates": [
          -1.050301,
          43.720472
        ]
      },
      "properties": {
        "nom": "Dax",
        "nom_sncf": "Dax",
        "departement": "Landes",
        "region": "Nouvelle-Aquitaine",
        "type": "tgv"
      }
    },
    {
      "type": "Feature",
      "geometry": {
        "type": "Point",
        "coordinates": [
          5.027083,
          47.323306
        ]
      },
      "properties": {
        "nom": "Dijon-Ville",
        "nom_sncf": "Dijon-Ville",
        "departement": "Côte-d'Or",
        "region": "Bourgogne-Franche-Comté",
        "type": "tgv"
      }
    },
    {
      "type": "Feature",
      "geometry": {
        "type": "Point",
        "coordinates": [
          -1.750536,
          48.54425
        ]
      },
      "properties": {
        "nom": "Dol-de-Bretagne",
        "nom_sncf": "Dol-de-Bretagne",
        "departement": "Ille-et-Vilaine",
        "region": "Bretagne",
        "type": "tgv"
      }
    },
    {
      "type": "Feature",
      "geometry": {
        "type": "Point",
        "coordinates": [
          5.48806,
          47.09615
        ]
      },
      "properties": {
        "nom": "Dole-Ville",
        "nom_sncf": "Dole-Ville",
        "departement": "Jura",
        "region": "Bourgogne-Franche-Comté",
        "type": "tgv"
      }
    },
    {
      "type": "Feature",
      "geometry": {
        "type": "Point",
        "coordinates": [
          3.089958,
          50.371673
        ]
      },
      "properties": {
        "nom": "Douai",
        "nom_sncf": "Douai",
        "departement": "Nord",
        "region": "Hauts-de-France",
        "type": "tgv"
      }
    },
    {
      "type": "Feature",
      "geometry": {
        "type": "Point",
        "coordinates": [
          2.368991,
          51.03041
        ]
      },
      "properties": {
        "nom": "Dunkerque",
        "nom_sncf": "Dunkerque",
        "departement": "Nord",
        "region": "Hauts-de-France",
        "type": "tgv"
      }
    },
    {
      "type": "Feature",
      "geometry": {
        "type": "Point",
        "coordinates": [
          6.441787,
          48.178005
        ]
      },
      "properties": {
        "nom": "Épinal",
        "nom_sncf": "Épinal",
        "departement": "Vosges",
        "region": "Grand Est",
        "type": "tgv"
      }
    },
    {
      "type": "Feature",
      "geometry": {
        "type": "Point",
        "coordinates": [
          1.642582,
          50.516544
        ]
      },
      "properties": {
        "nom": "Étaples - Le Touquet",
        "nom_sncf": "Étaples - Le Touquet",
        "departement": "Pas-de-Calais",
        "region": "Hauts-de-France",
        "type": "tgv"
      }
    },
    {
      "type": "Feature",
      "geometry": {
        "type": "Point",
        "coordinates": [
          6.577469,
          46.397916
        ]
      },
      "properties": {
        "nom": "Évian-les-Bains",
        "nom_sncf": "Évian-les-Bains",
        "departement": "Haute-Savoie",
        "region": "Auvergne-Rhône-Alpes",
        "type": "tgv"
      }
    },
    {
      "type": "Feature",
      "geometry": {
        "type": "Point",
        "coordinates": [
          -0.96621,
          44.637384
        ]
      },
      "properties": {
        "nom": "Facture-Biganos",
        "nom_sncf": "Biganos Facture",
        "departement": "Gironde",
        "region": "Nouvelle-Aquitaine",
        "type": "tgv"
      }
    },
    {
      "type": "Feature",
      "geometry": {
        "type": "Point",
        "coordinates": [
          6.901318,
          49.189228
        ]
      },
      "properties": {
        "nom": "Forbach",
        "nom_sncf": "Forbach",
        "departement": "Moselle",
        "region": "Grand Est",
        "type": "tgv"
      }
    },
    {
      "type": "Feature",
      "geometry": {
        "type": "Point",
        "coordinates": [
          6.157767,
          46.857596
        ]
      },
      "properties": {
        "nom": "Frasne",
        "nom_sncf": "Frasne",
        "departement": "Doubs",
        "region": "Bourgogne-Franche-Comté",
        "type": "tgv"
      }
    },
    {
      "type": "Feature",
      "geometry": {
        "type": "Point",
        "coordinates": [
          0.377209,
          46.669918
        ]
      },
      "properties": {
        "nom": "Futuroscope",
        "nom_sncf": "Futuroscope",
        "departement": "Vienne",
        "region": "Nouvelle-Aquitaine",
        "type": "tgv"
      }
    },
    {
      "type": "Feature",
      "geometry": {
        "type": "Point",
        "coordinates": [
          5.714548,
          45.191491
        ]
      },
      "properties": {
        "nom": "Grenoble",
        "nom_sncf": "Grenoble",
        "departement": "Isère",
        "region": "Auvergne-Rhône-Alpes",
        "type": "tgv"
      }
    },
    {
      "type": "Feature",
      "geometry": {
        "type": "Point",
        "coordinates": [
          -3.143343,
          48.555659
        ]
      },
      "properties": {
        "nom": "Guingamp",
        "nom_sncf": "Guingamp",
        "departement": "Côtes-d'Armor",
        "region": "Bretagne",
        "type": "tgv"
      }
    },
    {
      "type": "Feature",
      "geometry": {
        "type": "Point",
        "coordinates": [
          0.124644,
          49.492624
        ]
      },
      "properties": {
        "nom": "Le Havre",
        "nom_sncf": "Le Havre",
        "departement": "Seine-Maritime",
        "region": "Normandie",
        "type": "tgv"
      }
    },
    {
      "type": "Feature",
      "geometry": {
        "type": "Point",
        "coordinates": [
          2.541463,
          50.724924
        ]
      },
      "properties": {
        "nom": "Hazebrouck",
        "nom_sncf": "Hazebrouck",
        "departement": "Nord",
        "region": "Hauts-de-France",
        "type": "tgv"
      }
    },
    {
      "type": "Feature",
      "geometry": {
        "type": "Point",
        "coordinates": [
          -1.781724,
          43.353132
        ]
      },
      "properties": {
        "nom": "Hendaye",
        "nom_sncf": "Hendaye",
        "departement": "Pyrénées-Atlantiques",
        "region": "Nouvelle-Aquitaine",
        "type": "tgv"
      }
    },
    {
      "type": "Feature",
      "geometry": {
        "type": "Point",
        "coordinates": [
          6.124207,
          43.108902
        ]
      },
      "properties": {
        "nom": "Hyères",
        "nom_sncf": "Hyères",
        "departement": "Var",
        "region": "Provence-Alpes-Côte d'Azur",
        "type": "tgv"
      }
    },
    {
      "type": "Feature",
      "geometry": {
        "type": "Point",
        "coordinates": [
          -2.511546,
          48.46606
        ]
      },
      "properties": {
        "nom": "Lamballe",
        "nom_sncf": "Lamballe",
        "departement": "Côtes-d'Armor",
        "region": "Bretagne",
        "type": "tgv"
      }
    },
    {
      "type": "Feature",
      "geometry": {
        "type": "Point",
        "coordinates": [
          -4.256528,
          48.453572
        ]
      },
      "properties": {
        "nom": "Landerneau",
        "nom_sncf": "Landerneau",
        "departement": "Finistère",
        "region": "Bretagne",
        "type": "tgv"
      }
    },
    {
      "type": "Feature",
      "geometry": {
        "type": "Point",
        "coordinates": [
          6.733849,
          45.574213
        ]
      },
      "properties": {
        "nom": "Landry",
        "nom_sncf": "Landry",
        "departement": "Savoie",
        "region": "Auvergne-Rhône-Alpes",
        "type": "tgv"
      }
    },
    {
      "type": "Feature",
      "geometry": {
        "type": "Point",
        "coordinates": [
          -3.460353,
          48.727638
        ]
      },
      "properties": {
        "nom": "Lannion",
        "nom_sncf": "Lannion",
        "departement": "Côtes-d'Armor",
        "region": "Bretagne",
        "type": "tgv"
      }
    },
    {
      "type": "Feature",
      "geometry": {
        "type": "Point",
        "coordinates": [
          -0.760929,
          48.076255
        ]
      },
      "properties": {
        "nom": "Laval",
        "nom_sncf": "Laval",
        "departement": "Mayenne",
        "region": "Pays de la Loire",
        "type": "tgv"
      }
    },
    {
      "type": "Feature",
      "geometry": {
        "type": "Point",
        "coordinates": [
          2.828301,
          50.426866
        ]
      },
      "properties": {
        "nom": "Lens",
        "nom_sncf": "Lens",
        "departement": "Pas-de-Calais",
        "region": "Hauts-de-France",
        "type": "tgv"
      }
    },
    {
      "type": "Feature",
      "geometry": {
        "type": "Point",
        "coordinates": [
          -0.236359,
          44.915904
        ]
      },
      "properties": {
        "nom": "Libourne",
        "nom_sncf": "Libourne",
        "departement": "Gironde",
        "region": "Nouvelle-Aquitaine",
        "type": "tgv"
      }
    },
    {
      "type": "Feature",
      "geometry": {
        "type": "Point",
        "coordinates": [
          3.075721,
          50.6394
        ]
      },
      "properties": {
        "nom": "Lille-Europe",
        "nom_sncf": "Lille Europe",
        "departement": "Nord",
        "region": "Hauts-de-France",
        "type": "tgv"
      }
    },
    {
      "type": "Feature",
      "geometry": {
        "type": "Point",
        "coordinates": [
          3.06987,
          50.636577
        ]
      },
      "properties": {
        "nom": "Lille-Flandres",
        "nom_sncf": "Lille Flandres",
        "departement": "Nord",
        "region": "Hauts-de-France",
        "type": "tgv"
      }
    },
    {
      "type": "Feature",
      "geometry": {
        "type": "Point",
        "coordinates": [
          -3.366221,
          47.755597
        ]
      },
      "properties": {
        "nom": "Lorient",
        "nom_sncf": "Lorient",
        "departement": "Morbihan",
        "region": "Bretagne",
        "type": "tgv"
      }
    },
    {
      "type": "Feature",
      "geometry": {
        "type": "Point",
        "coordinates": [
          6.169778,
          48.947713
        ]
      },
      "properties": {
        "nom": "Lorraine TGV",
        "nom_sncf": "Lorraine TGV",
        "departement": "Moselle",
        "region": "Grand Est",
        "type": "tgv"
      }
    },
    {
      "type": "Feature",
      "geometry": {
        "type": "Point",
        "coordinates": [
          -0.042186,
          43.100429
        ]
      },
      "properties": {
        "nom": "Lourdes",
        "nom_sncf": "Lourdes",
        "departement": "Hautes-Pyrénées",
        "region": "Occitanie",
        "type": "tgv"
      }
    },
    {
      "type": "Feature",
      "geometry": {
        "type": "Point",
        "coordinates": [
          6.496997,
          48.58799
        ]
      },
      "properties": {
        "nom": "Lunéville",
        "nom_sncf": "Lunéville",
        "departement": "Meurthe-et-Moselle",
        "region": "Grand Est",
        "type": "tgv"
      }
    },
    {
      "type": "Feature",
      "geometry": {
        "type": "Point",
        "coordinates": [
          4.859409,
          45.760596
        ]
      },
      "properties": {
        "nom": "Lyon-Part-Dieu",
        "nom_sncf": "Lyon Part Dieu",
        "departement": "Rhône",
        "region": "Auvergne-Rhône-Alpes",
        "type": "tgv"
      }
    },
    {
      "type": "Feature",
      "geometry": {
        "type": "Point",
        "coordinates": [
          4.825777,
          45.748508
        ]
      },
      "properties": {
        "nom": "Lyon-Perrache",
        "nom_sncf": "Lyon Perrache",
        "departement": "Rhône",
        "region": "Auvergne-Rhône-Alpes",
        "type": "tgv"
      }
    },
    {
      "type": "Feature",
      "geometry": {
        "type": "Point",
        "coordinates": [
          5.074969,
          45.721109
        ]
      },
      "properties": {
        "nom": "Lyon-Saint-Exupéry TGV",
        "nom_sncf": "Lyon Saint-Exupéry TGV",
        "departement": "Rhône",
        "region": "Auvergne-Rhône-Alpes",
        "type": "tgv"
      }
    },
    {
      "type": "Feature",
      "geometry": {
        "type": "Point",
        "coordinates": [
          4.778924,
          46.282912
        ]
      },
      "properties": {
        "nom": "Mâcon-Loché TGV",
        "nom_sncf": "Mâcon Loché TGV",
        "departement": "Saône-et-Loire",
        "region": "Bourgogne-Franche-Comté",
        "type": "tgv"
      }
    },
    {
      "type": "Feature",
      "geometry": {
        "type": "Point",
        "coordinates": [
          2.596159,
          46.338101
        ]
      },
      "properties": {
        "nom": "Mâcon-Ville",
        "nom_sncf": "Montluçon - ville",
        "departement": "Saône-et-Loire",
        "region": "Bourgogne-Franche-Comté",
        "type": "tgv"
      }
    },
    {
      "type": "Feature",
      "geometry": {
        "type": "Point",
        "coordinates": [
          0.192614,
          47.995615
        ]
      },
      "properties": {
        "nom": "Le Mans",
        "nom_sncf": "Le Mans",
        "departement": "Sarthe",
        "region": "Pays de la Loire",
        "type": "tgv"
      }
    },
    {
      "type": "Feature",
      "geometry": {
        "type": "Point",
        "coordinates": [
          1.70337,
          48.98984
        ]
      },
      "properties": {
        "nom": "Mantes-la-Jolie",
        "nom_sncf": "Mantes-la-Jolie",
        "departement": "Yvelines",
        "region": "Île-de-France",
        "type": "tgv"
      }
    },
    {
      "type": "Feature",
      "geometry": {
        "type": "Point",
        "coordinates": [
          2.782218,
          48.869767
        ]
      },
      "properties": {
        "nom": "Marne-la-Vallée - Chessy",
        "nom_sncf": "Marne la Vallée - Chessy",
        "departement": "Seine-et-Marne",
        "region": "Île-de-France",
        "type": "tgv"
      }
    },
    {
      "type": "Feature",
      "geometry": {
        "type": "Point",
        "coordinates": [
          5.380407,
          43.302666
        ]
      },
      "properties": {
        "nom": "Marseille-Saint-Charles",
        "nom_sncf": "Marseille Saint-Charles",
        "departement": "Bouches-du-Rhône",
        "region": "Provence-Alpes-Côte d'Azur",
        "type": "tgv"
      }
    },
    {
      "type": "Feature",
      "geometry": {
        "type": "Point",
        "coordinates": [
          2.257528,
          48.726421
        ]
      },
      "properties": {
        "nom": "Massy - Palaiseau",
        "nom_sncf": "Massy - Palaiseau",
        "departement": "Essonne",
        "region": "Île-de-France",
        "type": "tgv"
      }
    },
    {
      "type": "Feature",
      "geometry": {
        "type": "Point",
        "coordinates": [
          6.177111,
          49.108944
        ]
      },
      "properties": {
        "nom": "Metz-Ville",
        "nom_sncf": "Metz-Ville",
        "departement": "Moselle",
        "region": "Grand Est",
        "type": "tgv"
      }
    },
    {
      "type": "Feature",
      "geometry": {
        "type": "Point",
        "coordinates": [
          5.271024,
          48.978583
        ]
      },
      "properties": {
        "nom": "Meuse TGV",
        "nom_sncf": "Meuse TGV",
        "departement": "Meuse",
        "region": "Grand Est",
        "type": "tgv"
      }
    },
    {
      "type": "Feature",
      "geometry": {
        "type": "Point",
        "coordinates": [
          4.999565,
          43.580737
        ]
      },
      "properties": {
        "nom": "Miramas",
        "nom_sncf": "Miramas",
        "departement": "Bouches-du-Rhône",
        "region": "Provence-Alpes-Côte d'Azur",
        "type": "tgv"
      }
    },
    {
      "type": "Feature",
      "geometry": {
        "type": "Point",
        "coordinates": [
          6.659139,
          45.193555
        ]
      },
      "properties": {
        "nom": "Modane",
        "nom_sncf": "Modane",
        "departement": "Savoie",
        "region": "Auvergne-Rhône-Alpes",
        "type": "tgv"
      }
    },
    {
      "type": "Feature",
      "geometry": {
        "type": "Point",
        "coordinates": [
          1.341499,
          44.01444
        ]
      },
      "properties": {
        "nom": "Montauban-Ville-Bourbon",
        "nom_sncf": "Montauban Ville Bourbon",
        "departement": "Tarn-et-Garonne",
        "region": "Occitanie",
        "type": "tgv"
      }
    },
    {
      "type": "Feature",
      "geometry": {
        "type": "Point",
        "coordinates": [
          4.336212,
          47.618741
        ]
      },
      "properties": {
        "nom": "Montbard",
        "nom_sncf": "Montbard",
        "departement": "Côte-d'Or",
        "region": "Bourgogne-Franche-Comté",
        "type": "tgv"
      }
    },
    {
      "type": "Feature",
      "geometry": {
        "type": "Point",
        "coordinates": [
          4.744726,
          44.558936
        ]
      },
      "properties": {
        "nom": "Montélimar",
        "nom_sncf": "Montélimar",
        "departement": "Drôme",
        "region": "Auvergne-Rhône-Alpes",
        "type": "tgv"
      }
    },
    {
      "type": "Feature",
      "geometry": {
        "type": "Point",
        "coordinates": [
          3.880674,
          43.604738
        ]
      },
      "properties": {
        "nom": "Montpellier-Saint-Roch",
        "nom_sncf": "Montpellier Saint-Roch",
        "departement": "Hérault",
        "region": "Occitanie",
        "type": "tgv"
      }
    },
    {
      "type": "Feature",
      "geometry": {
        "type": "Point",
        "coordinates": [
          3.924009,
          43.595146
        ]
      },
      "properties": {
        "nom": "Montpellier-Sud-de-France",
        "nom_sncf": "Montpellier Sud de France",
        "departement": "Hérault",
        "region": "Occitanie",
        "type": "tgv"
      }
    },
    {
      "type": "Feature",
      "geometry": {
        "type": "Point",
        "coordinates": [
          -3.832514,
          48.57797
        ]
      },
      "properties": {
        "nom": "Morlaix",
        "nom_sncf": "Morlaix",
        "departement": "Finistère",
        "region": "Bretagne",
        "type": "tgv"
      }
    },
    {
      "type": "Feature",
      "geometry": {
        "type": "Point",
        "coordinates": [
          5.799698,
          46.976865
        ]
      },
      "properties": {
        "nom": "Mouchard",
        "nom_sncf": "Mouchard",
        "departement": "Jura",
        "region": "Bourgogne-Franche-Comté",
        "type": "tgv"
      }
    },
    {
      "type": "Feature",
      "geometry": {
        "type": "Point",
        "coordinates": [
          6.531399,
          45.48647
        ]
      },
      "properties": {
        "nom": "Moûtiers - Salins - Brides-les-Bains",
        "nom_sncf": "Moûtiers - Salins - Brides-les-Bains",
        "departement": "Savoie",
        "region": "Auvergne-Rhône-Alpes",
        "type": "tgv"
      }
    },
    {
      "type": "Feature",
      "geometry": {
        "type": "Point",
        "coordinates": [
          7.335492,
          47.749294
        ]
      },
      "properties": {
        "nom": "Mulhouse-Ville",
        "nom_sncf": "Mulhouse Mairie",
        "departement": "Haut-Rhin",
        "region": "Grand Est",
        "type": "tgv"
      }
    },
    {
      "type": "Feature",
      "geometry": {
        "type": "Point",
        "coordinates": [
          6.173722,
          48.68975
        ]
      },
      "properties": {
        "nom": "Nancy-Ville",
        "nom_sncf": "Nancy-Ville",
        "departement": "Meurthe-et-Moselle",
        "region": "Grand Est",
        "type": "tgv"
      }
    },
    {
      "type": "Feature",
      "geometry": {
        "type": "Point",
        "coordinates": [
          -1.542077,
          47.217491
        ]
      },
      "properties": {
        "nom": "Nantes",
        "nom_sncf": "Nantes",
        "departement": "Loire-Atlantique",
        "region": "Pays de la Loire",
        "type": "tgv"
      }
    },
    {
      "type": "Feature",
      "geometry": {
        "type": "Point",
        "coordinates": [
          3.005667,
          43.190618
        ]
      },
      "properties": {
        "nom": "Narbonne",
        "nom_sncf": "Narbonne",
        "departement": "Aude",
        "region": "Occitanie",
        "type": "tgv"
      }
    },
    {
      "type": "Feature",
      "geometry": {
        "type": "Point",
        "coordinates": [
          7.261306,
          43.705083
        ]
      },
      "properties": {
        "nom": "Nice-Ville",
        "nom_sncf": "Nice-Ville",
        "departement": "Alpes-Maritimes",
        "region": "Provence-Alpes-Côte d'Azur",
        "type": "tgv"
      }
    },
    {
      "type": "Feature",
      "geometry": {
        "type": "Point",
        "coordinates": [
          4.365872,
          43.832313
        ]
      },
      "properties": {
        "nom": "Nîmes",
        "nom_sncf": "Nîmes Centre",
        "departement": "Gard",
        "region": "Occitanie",
        "type": "tgv"
      }
    },
    {
      "type": "Feature",
      "geometry": {
        "type": "Point",
        "coordinates": [
          4.507678,
          43.816809
        ]
      },
      "properties": {
        "nom": "Nîmes-Pont-du-Gard",
        "nom_sncf": "Nîmes Pont du Gard",
        "departement": "Gard",
        "region": "Occitanie",
        "type": "tgv"
      }
    },
    {
      "type": "Feature",
      "geometry": {
        "type": "Point",
        "coordinates": [
          -0.454639,
          46.319491
        ]
      },
      "properties": {
        "nom": "Niort",
        "nom_sncf": "Niort",
        "departement": "Deux-Sèvres",
        "region": "Nouvelle-Aquitaine",
        "type": "tgv"
      }
    },
    {
      "type": "Feature",
      "geometry": {
        "type": "Point",
        "coordinates": [
          5.5273,
          46.186468
        ]
      },
      "properties": {
        "nom": "Nurieux",
        "nom_sncf": "Nurieux Gare",
        "departement": "Ain",
        "region": "Auvergne-Rhône-Alpes",
        "type": "tgv"
      }
    },
    {
      "type": "Feature",
      "geometry": {
        "type": "Point",
        "coordinates": [
          4.820058,
          44.137485
        ]
      },
      "properties": {
        "nom": "Orange",
        "nom_sncf": "Orange",
        "departement": "Vaucluse",
        "region": "Provence-Alpes-Côte d'Azur",
        "type": "tgv"
      }
    },
    {
      "type": "Feature",
      "geometry": {
        "type": "Point",
        "coordinates": [
          -0.76776,
          43.484242
        ]
      },
      "properties": {
        "nom": "Orthez",
        "nom_sncf": "Orthez",
        "departement": "Pyrénées-Atlantiques",
        "region": "Nouvelle-Aquitaine",
        "type": "tgv"
      }
    },
    {
      "type": "Feature",
      "geometry": {
        "type": "Point",
        "coordinates": [
          2.359296,
          48.876793
        ]
      },
      "properties": {
        "nom": "Paris-Est",
        "nom_sncf": "Paris Est",
        "departement": "Paris",
        "region": "Île-de-France",
        "type": "tgv"
      }
    },
    {
      "type": "Feature",
      "geometry": {
        "type": "Point",
        "coordinates": [
          2.373481,
          48.844945
        ]
      },
      "properties": {
        "nom": "Paris-Gare-de-Lyon",
        "nom_sncf": "Paris - Gare de Lyon - Hall 1 & 2",
        "departement": "Paris",
        "region": "Île-de-France",
        "type": "tgv"
      }
    },
    {
      "type": "Feature",
      "geometry": {
        "type": "Point",
        "coordinates": [
          2.320514,
          48.841172
        ]
      },
      "properties": {
        "nom": "Paris-Montparnasse",
        "nom_sncf": "Paris - Montparnasse - Hall 1 & 2",
        "departement": "Paris",
        "region": "Île-de-France",
        "type": "tgv"
      }
    },
    {
      "type": "Feature",
      "geometry": {
        "type": "Point",
        "coordinates": [
          2.354851,
          48.880136
        ]
      },
      "properties": {
        "nom": "Paris-Nord",
        "nom_sncf": "Paris Nord",
        "departement": "Paris",
        "region": "Île-de-France",
        "type": "tgv"
      }
    },
    {
      "type": "Feature",
      "geometry": {
        "type": "Point",
        "coordinates": [
          -0.369675,
          43.291711
        ]
      },
      "properties": {
        "nom": "Pau",
        "nom_sncf": "Pau",
        "departement": "Pyrénées-Atlantiques",
        "region": "Nouvelle-Aquitaine",
        "type": "tgv"
      }
    },
    {
      "type": "Feature",
      "geometry": {
        "type": "Point",
        "coordinates": [
          2.879355,
          42.696096
        ]
      },
      "properties": {
        "nom": "Perpignan",
        "nom_sncf": "Perpignan",
        "departement": "Pyrénées-Orientales",
        "region": "Occitanie",
        "type": "tgv"
      }
    },
    {
      "type": "Feature",
      "geometry": {
        "type": "Point",
        "coordinates": [
          -3.466979,
          48.606422
        ]
      },
      "properties": {
        "nom": "Plouaret-Trégor",
        "nom_sncf": "Plouaret Trégor",
        "departement": "Côtes-d'Armor",
        "region": "Bretagne",
        "type": "tgv"
      }
    },
    {
      "type": "Feature",
      "geometry": {
        "type": "Point",
        "coordinates": [
          0.333136,
          46.582232
        ]
      },
      "properties": {
        "nom": "Poitiers",
        "nom_sncf": "Poitiers",
        "departement": "Vienne",
        "region": "Nouvelle-Aquitaine",
        "type": "tgv"
      }
    },
    {
      "type": "Feature",
      "geometry": {
        "type": "Point",
        "coordinates": [
          -2.344865,
          47.27043
        ]
      },
      "properties": {
        "nom": "Pornichet",
        "nom_sncf": "Pornichet",
        "departement": "Loire-Atlantique",
        "region": "Pays de la Loire",
        "type": "tgv"
      }
    },
    {
      "type": "Feature",
      "geometry": {
        "type": "Point",
        "coordinates": [
          -2.433126,
          47.282504
        ]
      },
      "properties": {
        "nom": "Le Pouliguen",
        "nom_sncf": "Le Pouliguen",
        "departement": "Loire-Atlantique",
        "region": "Pays de la Loire",
        "type": "tgv"
      }
    },
    {
      "type": "Feature",
      "geometry": {
        "type": "Point",
        "coordinates": [
          -4.092103,
          47.994455
        ]
      },
      "properties": {
        "nom": "Quimper",
        "nom_sncf": "Quimper",
        "departement": "Finistère",
        "region": "Bretagne",
        "type": "tgv"
      }
    },
    {
      "type": "Feature",
      "geometry": {
        "type": "Point",
        "coordinates": [
          -3.552693,
          47.869375
        ]
      },
      "properties": {
        "nom": "Quimperlé",
        "nom_sncf": "Quimperlé",
        "departement": "Finistère",
        "region": "Bretagne",
        "type": "tgv"
      }
    },
    {
      "type": "Feature",
      "geometry": {
        "type": "Point",
        "coordinates": [
          1.648048,
          50.415845
        ]
      },
      "properties": {
        "nom": "Rang-du-Fliers - Verton",
        "nom_sncf": "Rang-du-Fliers - Verton - Berck",
        "departement": "Pas-de-Calais",
        "region": "Hauts-de-France",
        "type": "tgv"
      }
    },
    {
      "type": "Feature",
      "geometry": {
        "type": "Point",
        "coordinates": [
          -2.08777,
          47.652004
        ]
      },
      "properties": {
        "nom": "Redon",
        "nom_sncf": "Redon",
        "departement": "Ille-et-Vilaine",
        "region": "Bretagne",
        "type": "tgv"
      }
    },
    {
      "type": "Feature",
      "geometry": {
        "type": "Point",
        "coordinates": [
          4.024338,
          49.259014
        ]
      },
      "properties": {
        "nom": "Reims",
        "nom_sncf": "Reims",
        "departement": "Marne",
        "region": "Grand Est",
        "type": "tgv"
      }
    },
    {
      "type": "Feature",
      "geometry": {
        "type": "Point",
        "coordinates": [
          6.598879,
          48.016342
        ]
      },
      "properties": {
        "nom": "Remiremont",
        "nom_sncf": "Remiremont",
        "departement": "Vosges",
        "region": "Grand Est",
        "type": "tgv"
      }
    },
    {
      "type": "Feature",
      "geometry": {
        "type": "Point",
        "coordinates": [
          -1.672744,
          48.103517
        ]
      },
      "properties": {
        "nom": "Rennes",
        "nom_sncf": "Rennes",
        "departement": "Ille-et-Vilaine",
        "region": "Bretagne",
        "type": "tgv"
      }
    },
    {
      "type": "Feature",
      "geometry": {
        "type": "Point",
        "coordinates": [
          4.369566,
          49.504393
        ]
      },
      "properties": {
        "nom": "Rethel",
        "nom_sncf": "Rethel",
        "departement": "Ardennes",
        "region": "Grand Est",
        "type": "tgv"
      }
    },
    {
      "type": "Feature",
      "geometry": {
        "type": "Point",
        "coordinates": [
          -1.43566,
          46.672075
        ]
      },
      "properties": {
        "nom": "La Roche-sur-Yon",
        "nom_sncf": "La Roche-sur-Yon",
        "departement": "Vendée",
        "region": "Pays de la Loire",
        "type": "tgv"
      }
    },
    {
      "type": "Feature",
      "geometry": {
        "type": "Point",
        "coordinates": [
          -1.145853,
          46.152705
        ]
      },
      "properties": {
        "nom": "La Rochelle-Ville",
        "nom_sncf": "La Rochelle",
        "departement": "Charente-Maritime",
        "region": "Nouvelle-Aquitaine",
        "type": "tgv"
      }
    },
    {
      "type": "Feature",
      "geometry": {
        "type": "Point",
        "coordinates": [
          -3.832702,
          47.960224
        ]
      },
      "properties": {
        "nom": "Rosporden",
        "nom_sncf": "Rosporden",
        "departement": "Finistère",
        "region": "Bretagne",
        "type": "tgv"
      }
    },
    {
      "type": "Feature",
      "geometry": {
        "type": "Point",
        "coordinates": [
          3.16351,
          50.695557
        ]
      },
      "properties": {
        "nom": "Roubaix",
        "nom_sncf": "Roubaix",
        "departement": "Nord",
        "region": "Hauts-de-France",
        "type": "tgv"
      }
    },
    {
      "type": "Feature",
      "geometry": {
        "type": "Point",
        "coordinates": [
          1.094103,
          49.448663
        ]
      },
      "properties": {
        "nom": "Rouen-Rive-Droite",
        "nom_sncf": "Rouen Rive Droite",
        "departement": "Seine-Maritime",
        "region": "Normandie",
        "type": "tgv"
      }
    },
    {
      "type": "Feature",
      "geometry": {
        "type": "Point",
        "coordinates": [
          -0.342,
          47.841759
        ]
      },
      "properties": {
        "nom": "Sablé-sur-Sarthe",
        "nom_sncf": "Sablé-sur-Sarthe",
        "departement": "Sarthe",
        "region": "Pays de la Loire",
        "type": "tgv"
      }
    },
    {
      "type": "Feature",
      "geometry": {
        "type": "Point",
        "coordinates": [
          -1.781116,
          46.500032
        ]
      },
      "properties": {
        "nom": "Les Sables-d'Olonne",
        "nom_sncf": "Les Sables-d'Olonne",
        "departement": "Vendée",
        "region": "Pays de la Loire",
        "type": "tgv"
      }
    },
    {
      "type": "Feature",
      "geometry": {
        "type": "Point",
        "coordinates": [
          6.302867,
          45.35312
        ]
      },
      "properties": {
        "nom": "Saint-Avre - La Chambre",
        "nom_sncf": "Saint-Avre - La Chambre",
        "departement": "Savoie",
        "region": "Auvergne-Rhône-Alpes",
        "type": "tgv"
      }
    },
    {
      "type": "Feature",
      "geometry": {
        "type": "Point",
        "coordinates": [
          -2.765,
          48.50758
        ]
      },
      "properties": {
        "nom": "Saint-Brieuc",
        "nom_sncf": "Saint-Brieuc",
        "departement": "Côtes-d'Armor",
        "region": "Bretagne",
        "type": "tgv"
      }
    },
    {
      "type": "Feature",
      "geometry": {
        "type": "Point",
        "coordinates": [
          6.948516,
          48.282043
        ]
      },
      "properties": {
        "nom": "Saint-Dié-des-Vosges",
        "nom_sncf": "Saint-Dié-des-Vosges",
        "departement": "Vosges",
        "region": "Grand Est",
        "type": "tgv"
      }
    },
    {
      "type": "Feature",
      "geometry": {
        "type": "Point",
        "coordinates": [
          4.399722,
          45.443366
        ]
      },
      "properties": {
        "nom": "Saint-Étienne-Châteaucreux",
        "nom_sncf": "Saint-Étienne Châteaucreux",
        "departement": "Loire",
        "region": "Auvergne-Rhône-Alpes",
        "type": "tgv"
      }
    },
    {
      "type": "Feature",
      "geometry": {
        "type": "Point",
        "coordinates": [
          6.701331,
          45.906423
        ]
      },
      "properties": {
        "nom": "Saint-Gervais-les-Bains-Le Fayet",
        "nom_sncf": "Saint-Gervais-les-Bains Le Fayet",
        "departement": "Haute-Savoie",
        "region": "Auvergne-Rhône-Alpes",
        "type": "tgv"
      }
    },
    {
      "type": "Feature",
      "geometry": {
        "type": "Point",
        "coordinates": [
          -1.661181,
          43.385862
        ]
      },
      "properties": {
        "nom": "Saint-Jean-de-Luz - Ciboure",
        "nom_sncf": "Saint-Jean-de-Luz - Ciboure",
        "departement": "Pyrénées-Atlantiques",
        "region": "Nouvelle-Aquitaine",
        "type": "tgv"
      }
    },
    {
      "type": "Feature",
      "geometry": {
        "type": "Point",
        "coordinates": [
          6.354716,
          45.277542
        ]
      },
      "properties": {
        "nom": "Saint-Jean-de-Maurienne - Vallée de l'Arvan",
        "nom_sncf": "Saint-Jean-de-Maurienne Arvan",
        "departement": "Savoie",
        "region": "Auvergne-Rhône-Alpes",
        "type": "tgv"
      }
    },
    {
      "type": "Feature",
      "geometry": {
        "type": "Point",
        "coordinates": [
          -0.20132,
          46.406482
        ]
      },
      "properties": {
        "nom": "Saint-Maixent (Deux-Sèvres)",
        "nom_sncf": "Saint-Maixent-l'École",
        "departement": "Deux-Sèvres",
        "region": "Nouvelle-Aquitaine",
        "type": "tgv"
      }
    },
    {
      "type": "Feature",
      "geometry": {
        "type": "Point",
        "coordinates": [
          -2.004158,
          48.646859
        ]
      },
      "properties": {
        "nom": "Saint-Malo",
        "nom_sncf": "Saint-Malo",
        "departement": "Ille-et-Vilaine",
        "region": "Bretagne",
        "type": "tgv"
      }
    },
    {
      "type": "Feature",
      "geometry": {
        "type": "Point",
        "coordinates": [
          6.471914,
          45.216916
        ]
      },
      "properties": {
        "nom": "Saint-Michel - Valloire",
        "nom_sncf": "Saint-Michel - Valloire",
        "departement": "Savoie",
        "region": "Auvergne-Rhône-Alpes",
        "type": "tgv"
      }
    },
    {
      "type": "Feature",
      "geometry": {
        "type": "Point",
        "coordinates": [
          -2.211167,
          47.28675
        ]
      },
      "properties": {
        "nom": "Saint-Nazaire",
        "nom_sncf": "Saint-Nazaire",
        "departement": "Loire-Atlantique",
        "region": "Pays de la Loire",
        "type": "tgv"
      }
    },
    {
      "type": "Feature",
      "geometry": {
        "type": "Point",
        "coordinates": [
          0.723539,
          47.38614
        ]
      },
      "properties": {
        "nom": "Saint-Pierre-des-Corps",
        "nom_sncf": "Saint-Pierre-des-Corps",
        "departement": "Indre-et-Loire",
        "region": "Centre-Val de Loire",
        "type": "tgv"
      }
    },
    {
      "type": "Feature",
      "geometry": {
        "type": "Point",
        "coordinates": [
          6.769037,
          43.423631
        ]
      },
      "properties": {
        "nom": "Saint-Raphaël-Valescure",
        "nom_sncf": "Saint-Raphaël Valescure",
        "departement": "Var",
        "region": "Provence-Alpes-Côte d'Azur",
        "type": "tgv"
      }
    },
    {
      "type": "Feature",
      "geometry": {
        "type": "Point",
        "coordinates": [
          6.636458,
          45.935699
        ]
      },
      "properties": {
        "nom": "Sallanches - Combloux - Megève",
        "nom_sncf": "Sallanches - Combloux - Megève",
        "departement": "Haute-Savoie",
        "region": "Auvergne-Rhône-Alpes",
        "type": "tgv"
      }
    },
    {
      "type": "Feature",
      "geometry": {
        "type": "Point",
        "coordinates": [
          7.05285,
          48.73808
        ]
      },
      "properties": {
        "nom": "Sarrebourg",
        "nom_sncf": "Sarrebourg",
        "departement": "Moselle",
        "region": "Grand Est",
        "type": "tgv"
      }
    },
    {
      "type": "Feature",
      "geometry": {
        "type": "Point",
        "coordinates": [
          -0.071403,
          47.268994
        ]
      },
      "properties": {
        "nom": "Saumur",
        "nom_sncf": "Saumur",
        "departement": "Maine-et-Loire",
        "region": "Pays de la Loire",
        "type": "tgv"
      }
    },
    {
      "type": "Feature",
      "geometry": {
        "type": "Point",
        "coordinates": [
          7.362055,
          48.744483
        ]
      },
      "properties": {
        "nom": "Saverne",
        "nom_sncf": "Saverne",
        "departement": "Bas-Rhin",
        "region": "Grand Est",
        "type": "tgv"
      }
    },
    {
      "type": "Feature",
      "geometry": {
        "type": "Point",
        "coordinates": [
          4.930373,
          49.695024
        ]
      },
      "properties": {
        "nom": "Sedan",
        "nom_sncf": "Sedan",
        "departement": "Ardennes",
        "region": "Grand Est",
        "type": "tgv"
      }
    },
    {
      "type": "Feature",
      "geometry": {
        "type": "Point",
        "coordinates": [
          7.443157,
          48.259824
        ]
      },
      "properties": {
        "nom": "Sélestat",
        "nom_sncf": "Sélestat",
        "departement": "Bas-Rhin",
        "region": "Grand Est",
        "type": "tgv"
      }
    },
    {
      "type": "Feature",
      "geometry": {
        "type": "Point",
        "coordinates": [
          3.696571,
          43.412641
        ]
      },
      "properties": {
        "nom": "Sète",
        "nom_sncf": "Sète",
        "departement": "Hérault",
        "region": "Occitanie",
        "type": "tgv"
      }
    },
    {
      "type": "Feature",
      "geometry": {
        "type": "Point",
        "coordinates": [
          7.734,
          48.583
        ]
      },
      "properties": {
        "nom": "Strasbourg-Ville",
        "nom_sncf": "Saint-Hilaire - Brizambourg",
        "departement": "Bas-Rhin",
        "region": "Grand Est",
        "type": "tgv"
      }
    },
    {
      "type": "Feature",
      "geometry": {
        "type": "Point",
        "coordinates": [
          -0.762054,
          46.113252
        ]
      },
      "properties": {
        "nom": "Surgères",
        "nom_sncf": "Surgères",
        "departement": "Charente-Maritime",
        "region": "Nouvelle-Aquitaine",
        "type": "tgv"
      }
    },
    {
      "type": "Feature",
      "geometry": {
        "type": "Point",
        "coordinates": [
          0.069442,
          43.239863
        ]
      },
      "properties": {
        "nom": "Tarbes",
        "nom_sncf": "Tarbes",
        "departement": "Hautes-Pyrénées",
        "region": "Occitanie",
        "type": "tgv"
      }
    },
    {
      "type": "Feature",
      "geometry": {
        "type": "Point",
        "coordinates": [
          -1.14297,
          44.636966
        ]
      },
      "properties": {
        "nom": "La Teste",
        "nom_sncf": "La Teste",
        "departement": "Gironde",
        "region": "Nouvelle-Aquitaine",
        "type": "tgv"
      }
    },
    {
      "type": "Feature",
      "geometry": {
        "type": "Point",
        "coordinates": [
          2.831619,
          49.859172
        ]
      },
      "properties": {
        "nom": "TGV Haute-Picardie",
        "nom_sncf": "TGV Haute Picardie",
        "departement": "Somme",
        "region": "Hauts-de-France",
        "type": "tgv"
      }
    },
    {
      "type": "Feature",
      "geometry": {
        "type": "Point",
        "coordinates": [
          6.168582,
          49.353965
        ]
      },
      "properties": {
        "nom": "Thionville",
        "nom_sncf": "Thionville",
        "departement": "Moselle",
        "region": "Grand Est",
        "type": "tgv"
      }
    },
    {
      "type": "Feature",
      "geometry": {
        "type": "Point",
        "coordinates": [
          6.481673,
          46.368989
        ]
      },
      "properties": {
        "nom": "Thonon-les-Bains",
        "nom_sncf": "Thonon-les-Bains",
        "departement": "Haute-Savoie",
        "region": "Auvergne-Rhône-Alpes",
        "type": "tgv"
      }
    },
    {
      "type": "Feature",
      "geometry": {
        "type": "Point",
        "coordinates": [
          5.929404,
          43.128353
        ]
      },
      "properties": {
        "nom": "Toulon",
        "nom_sncf": "Toulon",
        "departement": "Var",
        "region": "Provence-Alpes-Côte d'Azur",
        "type": "tgv"
      }
    },
    {
      "type": "Feature",
      "geometry": {
        "type": "Point",
        "coordinates": [
          1.453616,
          43.611206
        ]
      },
      "properties": {
        "nom": "Toulouse-Matabiau",
        "nom_sncf": "Toulouse Matabiau",
        "departement": "Haute-Garonne",
        "region": "Occitanie",
        "type": "tgv"
      }
    },
    {
      "type": "Feature",
      "geometry": {
        "type": "Point",
        "coordinates": [
          3.168027,
          50.716826
        ]
      },
      "properties": {
        "nom": "Tourcoing",
        "nom_sncf": "Tourcoing",
        "departement": "Nord",
        "region": "Hauts-de-France",
        "type": "tgv"
      }
    },
    {
      "type": "Feature",
      "geometry": {
        "type": "Point",
        "coordinates": [
          0.693638,
          47.389694
        ]
      },
      "properties": {
        "nom": "Tours",
        "nom_sncf": "Tours",
        "departement": "Indre-et-Loire",
        "region": "Centre-Val de Loire",
        "type": "tgv"
      }
    },
    {
      "type": "Feature",
      "geometry": {
        "type": "Point",
        "coordinates": [
          4.978652,
          44.991907
        ]
      },
      "properties": {
        "nom": "Valence TGV",
        "nom_sncf": "Valence TGV Rhône-Alpes Sud",
        "departement": "Drôme",
        "region": "Auvergne-Rhône-Alpes",
        "type": "tgv"
      }
    },
    {
      "type": "Feature",
      "geometry": {
        "type": "Point",
        "coordinates": [
          4.893288,
          44.928081
        ]
      },
      "properties": {
        "nom": "Valence-Ville",
        "nom_sncf": "Valence Ville",
        "departement": "Drôme",
        "region": "Auvergne-Rhône-Alpes",
        "type": "tgv"
      }
    },
    {
      "type": "Feature",
      "geometry": {
        "type": "Point",
        "coordinates": [
          3.517124,
          50.363187
        ]
      },
      "properties": {
        "nom": "Valenciennes",
        "nom_sncf": "Valenciennes",
        "departement": "Nord",
        "region": "Hauts-de-France",
        "type": "tgv"
      }
    },
    {
      "type": "Feature",
      "geometry": {
        "type": "Point",
        "coordinates": [
          -2.75245,
          47.665169
        ]
      },
      "properties": {
        "nom": "Vannes",
        "nom_sncf": "Vannes",
        "departement": "Morbihan",
        "region": "Bretagne",
        "type": "tgv"
      }
    },
    {
      "type": "Feature",
      "geometry": {
        "type": "Point",
        "coordinates": [
          1.021143,
          47.821937
        ]
      },
      "properties": {
        "nom": "Vendôme - Villiers-sur-Loir",
        "nom_sncf": "Vendôme - Villiers-sur-Loir",
        "departement": "Loir-et-Cher",
        "region": "Centre-Val de Loire",
        "type": "tgv"
      }
    },
    {
      "type": "Feature",
      "geometry": {
        "type": "Point",
        "coordinates": [
          -1.211754,
          48.122671
        ]
      },
      "properties": {
        "nom": "Vitré",
        "nom_sncf": "Vitré",
        "departement": "Ille-et-Vilaine",
        "region": "Bretagne",
        "type": "tgv"
      }
    },
    {
      "type": "Feature",
      "geometry": {
        "type": "Point",
        "coordinates": [
          4.587515,
          48.717913
        ]
      },
      "properties": {
        "nom": "Vitry-le-François",
        "nom_sncf": "Vitry-le-François",
        "departement": "Marne",
        "region": "Grand Est",
        "type": "tgv"
      }
    }
  ]
}